Company Name,Key ID,Address Line 1,City,Phone,URL,Revenue (As Reported),Employees,Match Status,CRM Company Name,CRM Group ID,CRM Company ID
Union Defence Force,123228858,Po Box 128889,Abu Dhabi,24415300,,,90100.0,,,,
Arabtec Holding PJSC,42386653,Al Muhairy Centre,Abu Dhabi,971-2-3336666,http://www.arabtecholding.com,8293031300.0,42000.0,,,,
Al Jaber Transport & General Contracting Llc,123046055,Po Box 2175,Abu Dhabi,25554300,,,40000.0,,,,
Arabian Construction Company - W L L,122882369,Po Box 2113,Abu Dhabi,26771225,,,30000.0,,,,
Abu Dhabi Group,104158751,PO Box 44222,Abu Dhabi,971-26266406,http://www.abudhabiigroup.com,71250203000.0,25000.0,,,,
EMKE Group LLC,42385871,PO Box 4048,Abu Dhabi,971-2-4182000,http://www.emkegroup.com,19830000000.0,22000.0,,,,
National Central Cooling Co PSC,44600285,"Abu Dhabi Mall, West Tower, 13th Floor,",Abu Dhabi,971-2-6455007,http://www.tabreed.ae,1130612100.0,16116.0,,,,
Abu Dhabi Water & Electricity Authority,107923724,,Abu Dhabi,971-26943333,http://www.adwea.ae,,15000.0,,,,
Al Jaber Group LLC,42385943,PO Box 2175,Abu Dhabi,971-2-5554300,http://www.aljaber.com/,28297900000.0,15000.0,,,,
Abu Dhabi National Oil Company,42385736,"Zayed The 1 Street,",Abu Dhabi,971-2-6020000,http://www.adnoc.ae/,30850000000.0,14000.0,,,,
Abu Dhabi National Hotels Company - Compass Middle East - L L C,123156937,Po Box 48606,Abu Dhabi,24447228,,,14000.0,,,,
W S Atkins & Partners Overseas,42385786,Po Box 7562,Abu Dhabi,26249100,http://www.atkinsglobal.com,1775500000.0,13211.0,,,,
Mubadala Technology Investments LLC,106299382,HQ Building,Abu Dhabi,971-2-4134333,http://www.mubadala.com,3500000000.0,13000.0,,,,
The National Petroleum Construction Company,42386020,PO Box 2058,Abu Dhabi,971-25549000,http://www.npcc.ae,562900020.0,10000.0,,,,
Al Jaber Energy Services LLC,98725641,Al Jaber Building,Abu Dhabi,971-2-5546550,http://ajes.ae/,3897899900.0,10000.0,,,,
Abu Dhabi National Hotels,42385734,Abu Dhabi National Hotels Building,Abu Dhabi,971-2-4447228,http://www.adnh.com,1340166000.0,9156.0,,,,
Galfar Engineering & Contracting WLL,42385891,PO Box 72218,Abu Dhabi,971-26336111,http://www.emirates.net.ae,,9000.0,,,,
Etihad Airways PJSC,48960720,PO Box 35566,Abu Dhabi,+971 2 511 0000,http://www.etihadairways.com,4084500000.0,9000.0,,,,
Gac Marine Equipment Industry & Maintenance - L L C,123278891,Po Box 8101,Abu Dhabi,25014900,,,8000.0,,,,
National Petroleum Construction Company,123246169,Po Box 2058,Abu Dhabi,25549000,,,7130.0,,,,
United Arab Emirates Money Exchange Centre - L L C - Abu Dhabi,123730653,Po Box 170,Abu Dhabi,26105555,,,7000.0,,,,
International Engineering Technology L L C,120030328,Po Box 31859,Abu Dhabi,26816770,http://www.g4s.com,,7000.0,,,,
Expeditors Intertnational Llc.,122048132,Po Box 51473,Abu Dhabi,26723003,,,7000.0,,,,
Group 4 Securicor Security Services UAE L.L.C.,48609243,PO Box 31859,Abu Dhabi,971-02 4491510,http://www.g4s.ae,918599980.0,6528.0,,,,
General Information Authority,122940147,Po Box 3870,Abu Dhabi,26160444,,,6500.0,,,,
Fair Green International Landscaping,50835923,PO Box 6391,Abu Dhabi,971-02 6337002,http://www.fairgreen-intl.com/contactus.asp,3330300000.0,6000.0,,,,
Al Jaber L E G T Engineering & Contracting (Alec) L L C,123332911,Po Box 27639,Abu Dhabi,25567540,,,6000.0,,,,
West Coast Cleaning & Environmental Services Company - L L C,122461398,Po Box 5724,Abu Dhabi,6266676,http://www.westcoastme.com,,6000.0,,,,
Actco General Contracting Company W L L,122044256,Po Box 2361,Abu Dhabi,6812255,,,6000.0,,,,
M+W Singapore Pte Ltd - Abu Dhabi,122044368,Po Box 61637,Abu Dhabi,26538051,,,6000.0,,,,
Eastern Bechtel Company Limited,133360996,Po Box 2661,Abu Dhabi,26998400,,,5300.0,,,,
Samsung-Saif Bin Darwish Jv,122461991,Po Box 53581,Abu Dhabi,24949600,,800000000.0,5200.0,,,,
Al Dar Laing O'Rouke Construction - L L C,123262644,Po Box 110800,Abu Dhabi,25017017,,,5000.0,,,,
Noor Al Khaleej Trading Company - W L L,123282622,Po Box 45261,Abu Dhabi,26273270,,4931500.0,5000.0,,,,
Drake & Scull International L.L.C,121726456,Airport Road Opposite Abu Dhabi Chamber of comm,Abu Dhabi,971-26226005,,,5000.0,,,,
Al Geemi & Partners Contracting Company W L L,123284616,Po Box 2877,Abu Dhabi,26328438,,,5000.0,,,,
Emirates Holdings Electronics And Communications,122882385,Po Box 34895,Abu Dhabi,26449088,,,5000.0,,,,
Samsung C&T Corporation - Abu Dhabi,123249948,Po Box 42654,Abu Dhabi,26671707,,,5000.0,,,,
Al Nasser Holdings,42386004,PO Box 46611,Abu Dhabi,971-02 6391100,http://www.anholdings.com,5131000000.0,5000.0,,,,
Bam International,92507447,P.O. Box 25685,Abu Dhabi,26444100,http://www.interbeton.nl,,5000.0,,,,
NMC Hospitals,124754330,Electra Street,Abu Dhabi,971-26332255,,,5000.0,,,,
Al Hamed Enterprises,43523276,PO Box 592,Abu Dhabi,971-02 6675555,http://www.alhamed.com,17032100000.0,4600.0,,,,
Jan De Nul Dredging Limited - Abu Dhabi,123262653,Po Box 73422,Abu Dhabi,26267234,,,4500.0,,,,
Square General Contracting Company - L L C,121882170,Po Box 46575,Abu Dhabi,26670650,,,4000.0,,,,
Porcellan Company Llc,122048026,Po Box 74684,Abu Dhabi,26576418,,,4000.0,,,,
National Ready Mix Concrete Co.,43762999,PO Box 568,Abu Dhabi,971-02 6323227,http://www.lootahgroup.com,28131199000.0,4000.0,,,,
Code Contracting Company - L Lc,121848623,Po Box 25224,Abu Dhabi,24464616,,,4000.0,,,,
Gibca Trading & Contracting Company - W L L,123229938,Po Box 2570,Abu Dhabi,26260222,,,4000.0,,,,
Belhasa Six Construct Company Llc,121848029,Po Box 226,Abu Dhabi,6715400,,,4000.0,,,,
International Mechanical & Electrical Company W L L,123229952,Po Box 46527,Abu Dhabi,26444700,,,4000.0,,,,
NMC Group,120011440,Street 5 Warehouse 120,Abu Dhabi,971-26734300,http://www.nmc.ae,,4000.0,,,,
Al Noor Hospitals Group PLC,122895558,Mussafah,Abu Dhabi,,http://www.alnoorhospital.com/,449056000.0,3922.0,,,,
International Management and Construction Corp.,50835924,PO Box 2739,Abu Dhabi,971-02 5553395,http://www.imcc.ae,2056899900.0,3700.0,,,,
MAPCO L.L.C.,42385970,PO Box 2035,Abu Dhabi,971-02 6783626,http://www.mapcouae.com,1912200000.0,3500.0,,,,
National Drilling Co.,133360913,Po Box 4017,Abu Dhabi,971-02 6776100,http://www.ndc.ae,9448500000.0,3500.0,,,,
Abu Dhabi Gas Industries Limited,42385726,,Abu Dhabi,971-26030000,http://www.gasco.ae,4948799800.0,3500.0,,,,
Gulf Piping Co Wll,133363574,Po Box 2739,Abu Dhabi,25553395,,,3500.0,,,,
Al Nabooda Contracting Company - L L C,123109587,Po Box 52224,Abu Dhabi,25506550,,,3000.0,,,,
Punj Lloyd Ltd,122786515,P.O. Box 28907,Abu Dhabi,26261604,,,3000.0,,,,
Spark Development & Trading,121882883,Po Box 26061,Abu Dhabi,26777522,,,3000.0,,,,
Aecom Middle East Limited. - Abu Dhabi,120029806,Po Box 43266,Abu Dhabi,26134000,http://www.aecom.com,,3000.0,,,,
Armed Forces Officer Club Hotel,122044210,Po Box 29810,Abu Dhabi,24415900,http://www.afoc.mil.ae,,3000.0,,,,
Abu Dhabi Aircraft Technologies PJSC,42385905,Abu Dhabi Aircraft Technologies Building,Abu Dhabi,971-2-5757555,http://www.adat.ae,4041000000.0,3000.0,,,,
Middle East Energy & Industrial Services Company - L L C,123217428,Po Box 519,Abu Dhabi,26442600,,,2800.0,,,,
Abu Dhabi Aircraft Technologies,123283175,Po Box 46450,Abu Dhabi,25757555,,,2800.0,,,,
Freyssinet Middle East - L L C,123249653,Po Box 28752,Abu Dhabi,26422962,,,2700.0,,,,
National Bank of Abu Dhabi,42386005,One National Bank of Abu Dhabi Tower,Abu Dhabi,971-2-6111352,http://www.nbad.com,11185451000.0,2544.0,,,,
Emirates Technical Thermal Systems Company - L L C,122981040,Po Box 43155,Abu Dhabi,6678080,,21200001.0,2500.0,,,,
Abu Dhabi Supplies & Commercial Services Establishment.,122985882,Po Box 768,Abu Dhabi,26767400,,,2500.0,,,,
Tekfen Construction And Installation Company,122044354,Po Box 52237,Abu Dhabi,25591301,,,2500.0,,,,
Al Jaber Signs L.L.C.,124754244,M 20 Plot No 5 12 & 23,Abu Dhabi,971-25553707,http://www.aljaber.com,,2500.0,,,,
Abu Dhabi National Oil Company for Distribution,42385737,PO Box 4188,Abu Dhabi,971-02 6771300,http://www.adnoc-dist.ae,34770602000.0,2500.0,,,,
Voltas Limited,107976552,Po Box 25513,Abu Dhabi,26504511,http://www.voltas.com,,2450.0,,,,
NMC Opticals,124754433,,Abu Dhabi,971-26332255,http://www.nmc.com,,2400.0,,,,
Gulf Contractors Company L.L.C.,42385907,PO Box 45363,Abu Dhabi,971-02 6267510,http://www.gcc.ae,6847899900.0,2400.0,,,,
Abu Dhabi Marine Operating Company,123730292,Po Box 303,Abu Dhabi,26060000,,,2346.0,,,,
Arabian Construction Company SAL - Abu Dhabi,42385779,PO Box 2113,Abu Dhabi,971-02 6771225,http://www.accsal.com,1276800000.0,2300.0,,,,
Kelvin Catering Services (Emirates) Llc,122874181,Po Box 3210,Abu Dhabi,26734780,,,2300.0,,,,
Pal Group Of Companies L L C,122940735,Po Box 34036,Abu Dhabi,28155555,,,2300.0,,,,
Worley Parsons Engineering Pty Limited - Abu Dhabi,121850876,Po Box 44169,Abu Dhabi,26766439,,,2200.0,,,,
Control and Applications Group,120010491,Po Box 3687,Abu Dhabi,971-2-6767-965,http://www.cagroup.ae,,2173.0,,,,
Abu Dhabi Media Company PJSC,104146714,P.O.Box 63,Abu Dhabi,971-2-4144000,http://www.admedia.ae,5260500000.0,2098.0,,,,
Abu Dhabi Media Company Pjsc,133363581,Po Box 63,Abu Dhabi,4144001,,,2000.0,,,,
Western Bainoona Group For General Contracting - Llc,122190613,Po Box 44252,Abu Dhabi,25513222,,,2000.0,,,,
S N C Lavalin International,122873344,Po Box 54130,Abu Dhabi,26445561,,,2000.0,,,,
Abu Dhabi Judicial Department,123278882,P.O. Box 84,Abu Dhabi,26512222,http://www.adjd.gov.ae,,2000.0,,,,
Emirates Telecommunication Corp Ltd,51373208,PO Box 3838,Abu Dhabi,971-2-6283333,http://www.etisalat.ae,48766875000.0,2000.0,,,,
Alsa Engineering & Construction Company Llc,122190616,Po Box 54294,Abu Dhabi,26581551,,,2000.0,,,,
Automatic System Corporation,92460731,Po Box 5297,Abu Dhabi,25511111,http://www.ascorpuae.com,,2000.0,,,,
Emirates Holdings Co.,42385864,PO Box 984,Abu Dhabi,971-02 6447373,http://www.emiratesholdings.com,1110100000.0,2000.0,,,,
Ghantoot Transport & General Contracting L.L.C.,122459681,Po Box 27557,Abu Dhabi,26413388,,,2000.0,,,,
Emirates Aluminum Company Limited P J S,122895537,Po Box 111023,Abu Dhabi,25092222,,,2000.0,,,,
Abu Dhabi - Flight Catering Company - L L C,122920946,Po Box 3167,Abu Dhabi,25757571,,,2000.0,,,,
Agthia Group PJSC,51487650,PO Box 37725,Abu Dhabi,971-2-5960600,http://www.agthia.com,1655067000.0,2000.0,,,,
Bin Jabr Fire Fighting & Safety Equipment Co. - Llc,122895544,Po Box 46711,Abu Dhabi,26418284,,,2000.0,,,,
Thales Geosolutions Overseas,122873529,Po Box 8625,Abu Dhabi,25554817,,347850010.0,2000.0,,,,
Al Jaber Trading L L C,123253308,Po Box 2175,Abu Dhabi,5559559,,,2000.0,,,,
Gulf Dunes Landscaping & Agricultural Services L.L.C.,136967197,,Abu Dhabi,971-2-6677288,http://www.gdlandscapeu.ae,,2000.0,,,,
Ghantout Transporting & General Contracting Establishment,122480700,Po Box 27557,Abu Dhabi,26413388,,,2000.0,,,,
Insulco Emirates Establishment,123278626,Po Box 103,Abu Dhabi,25500025,,34557301.0,2000.0,,,,
Consolidated Contracting Engineering & Procurement Co.-Sal Offshore,123280606,Po Box 224,Abu Dhabi,26276500,,,2000.0,,,,
Abu Dhabi Company For Onshore Oil Operations (Adco),123730294,Po Box 270,Abu Dhabi,26040000,,,1900.0,,,,
Mohammed Bin Masaood and Sons,42385977,PO Box 322,Abu Dhabi,971-02 6722300,http://www.masaood.com,1038000000.0,1900.0,,,,
Keo International Consulants - Abu Dhabi,123262648,Po Box 27594,Abu Dhabi,24173000,,,1900.0,,,,
National Corp. for Tourism and Hotels,44600284,"Airport Road,",Abu Dhabi,971-2-4099999,http://www.ncth.com,781336910.0,1845.0,,,,
Massar Solutions PJSC,140114203,7th Floor Tower 2,Abu Dhabi,971-2-5075000,http://massarsolutions.ae,478810000.0,1813.0,,,,
Ranya General Construction,122940150,Khalifa Street,Abu Dhabi,26773063,,,1800.0,,,,
Abu Dhabi Oil Refining Company,48261561,,Abu Dhabi,971-26027001,http://www.takreer.com,5489799800.0,1800.0,,,,
Abu Dhabi Municipality,123158228,Po Box 263,Abu Dhabi,26788888,http://adm.gov.ae,,1800.0,,,,
Abu Dhabi Polymers Co. Ltd,48960728,"Borouge Tower, Shaikh Khalifa Energy Complex Corniche Road",Abu Dhabi,971-2-6070300,http://www.borouge.com,671900020.0,1700.0,,,,
Al Dhafra Irigation Systems - L L C,123217429,Po Box 127519,Abu Dhabi,26428812,,,1600.0,,,,
Etihad Airport Services - Catering L.L.C.,123158209,Airline Catering Building Abu Dhabi International Airport,Abu Dhabi,25757428,,,1600.0,,,,
Abu Dhabi Airport Services,42385714,PO Box 94449,Abu Dhabi,971-02 5757032,http://www.adac.ae,853299990.0,1520.0,,,,
Abu Dhabi Marine Operating Company,42385731,,Abu Dhabi,971-26060000,http://www.abudhabimargroup.com,4313700200.0,1504.0,,,,
New Marketing & Trading Co Llc,122896036,Po Box 6222,Abu Dhabi,26734300,,,1500.0,,,,
Clientsoft Technology L L C,121848231,Po Box 41777,Abu Dhabi,6216868,,,1500.0,,,,
Technip France,92461395,Po Box 7657,Abu Dhabi,26116000,http://www.technip.com,,1500.0,,,,
UAE Exchange Centre LLC,121745515,,Abu Dhabi,971-43537378,http://www.uaeexchange.com,,1500.0,,,,
Hadeed Emirates Contracting (L.L.C),122874190,Salam Street Behind Salam Hospital,Abu Dhabi,26713416,,,1500.0,,,,
Mousa Industrial Company (Minco),122044252,Po Box 47190,Abu Dhabi,26664227,,,1500.0,,,,
Al Falah Readymix Factory Llc,123280589,Po Box 35090,Abu Dhabi,25511006,,,1500.0,,,,
Transco Abu Dhabi Transmission & Despatch Company,133363770,Po Box 173,Abu Dhabi,26414000,,,1500.0,,,,
National Health Insurance Company - Daman - Pjsc,123284547,Po Box 128888,Abu Dhabi,26149555,,,1500.0,,,,
National Food Products Company Milco WLL,95527444,PO Box 2403,Abu Dhabi,971-2-5582808,http://www.milcodairy.com,2291200000.0,1500.0,,,,
ADMAK General Contracting Company W.L.L.,42385749,,Abu Dhabi,971-2-6264626,http://www.makahara.net,951799990.0,1500.0,,,,
National Marine Dredging PSC,42386017,"Mussafah Industrial Area,",Abu Dhabi,971-2-5130000,http://www.nmdc.com,1629204000.0,1487.0,,,,
First Gulf Bank PJSC,42385885,PO Box 6316,Abu Dhabi,971-2-6816666,http://www.fgb.ae,9261826200.0,1454.0,,,,
Abu Dhabi Company for Onshore Oil Operat,42385719,Abu Dhabi Co fr Onshr Oil Oprtns Bldg,Abu Dhabi,971-2-6040000,http://www.adco.ae,8684700200.0,1450.0,,,,
National Catering Company Llc,123058796,Shiekh Mohammed Bin Butti Al Hamed Building Khalidiyah,Abu Dhabi,26345151,,,1400.0,,,,
Al Habtoor Specon Hastie International Jv (Hsh),123098476,Po Box Procurrement Manager,Abu Dhabi,566037922,,,1400.0,,,,
Almansoori Specialized Engineering,42385969,PO Box 3374,Abu Dhabi,97128157000,http://www.almansoori.biz,756000000.0,1400.0,,,,
Tristar Transport & Contractng,122047946,Po Box 918,Mussafah,25553437,,120000000.0,1400.0,,,,
Emirates Technical Associates L.L.C.,122874207,Po Box 3532,Abu Dhabi,26937222,,,1399.0,,,,
Abu Dhabi Commercial Bank PJSC,42385720,PO Box 939,Abu Dhabi,971-2-6962297,http://www.adcb.com,7855222200.0,1366.0,,,,
Petroleum Services Company - Esnaad - P J S,122373484,Po Box 46121,Abu Dhabi,26029000,,,1355.0,,,,
Larsen & Toubro Limited - Ecc Construction Group - Abu Dhabi,123167912,Po Box 30803,Abu Dhabi,26729136,,,1300.0,,,,
Nael Energy & General Enterprises Establishment - Abu Dhabi Branch,122143897,Po Box 2045,Abu Dhabi,26776757,,,1300.0,,,,
Readymix Beton Establishment,42386052,Po Box 3610,Abu Dhabi,26337580,http://www.readymixbeton.com,,1300.0,,,,
Al Fahim,42385881,Al Fahim Group Building,Abu Dhabi,971-2-6567000,http://www.alfahim.com/,,1300.0,,,,
Abu Dhabi Islamic Bank PJSC,43871889,Abu Dhabi Islamic Bank Building,Abu Dhabi,971-2-6100000,http://www.adib.ae,4632240200.0,1228.0,,,,
Parsons International Limited,92460815,Po Box 5498,Abu Dhabi,26142416,http://www.parsons.com,,1215.0,,,,
Royal Garden Agricultural Contracting Company,123228862,Opposite Star Cement Factory,Abu Dhabi,25500822,,,1213.0,,,,
Zakum Development Company,42386124,PO Box 46808,Abu Dhabi,+9712-6050000,http://zadco.ae/en/Pages/default.aspx,5776200200.0,1200.0,,,,
Bin Salem Group - L L C,133363592,Po Box 7969,Abu Dhabi,24122222,,,1200.0,,,,
Hyundai Engineering & Construction Company,120010398,Po Box 46101,Abu Dhabi,26432865,http://www.en.hdec.kr,,1200.0,,,,
Siemens LLC,46490318,PO Box 47015,Abu Dhabi,971-26165100,http://w1.siemens.com,769200010.0,1200.0,,,,
The Kanoo Group,42385951,Po Box 245,Abu Dhabi,971-2-677-4444,http://www.kanoogroup.com,,1200.0,,,,
Danway Abu Dhabi,42385849,Near Neopharma,Abu Dhabi,971-2-5994444,http://www.danwayllc.com,347500000.0,1200.0,,,,
Agencies & Trading Company,121842832,Po Box 27599,Abu Dhabi,26948384,,,1200.0,,,,
Dhabia Trading Establishment,121843546,Po Box 4875/4192,Abu Dhabi,6904555,,,1200.0,,,,
Electrical Centre,122153217,Po Box 4037,Abu Dhabi,26722400,,,1200.0,,,,
Southern Franchise Company (L.L.C),121851586,Po Box 44145,Abu Dhabi,42868878,,,1200.0,,,,
Dodsal Engineering And Construction Pte. Limited - Abu Dhabi,123167645,Po Box 701,Abu Dhabi,24093812,,,1193.0,,,,
Engineering Maintenance Co.mpany EMCO,42385873,PO Box 3532,Abu Dhabi,971-02 6340600,http://emcouae.com,734099980.0,1150.0,,,,
Abu Dhabi National Energy Company PJSC,50779454,Al Maryah Island,Abu Dhabi,971-2-6914900,http://www.taqaglobal.com,27325000000.0,1119.0,,,,
Galfar Engineering & Contracting -W L L- Uae,123282638,Po Box 72218,Abu Dhabi,25502515,,258000000.0,1100.0,,,,
Ali and Sons Contracting Company L.L.C.,42387135,PO Box 2153,Abu Dhabi,971-02 5546611,http://asc.ali-sons.com,,1100.0,,,,
A B J Industries P J S C,122044422,Po Box 26831,,25130522,,,1100.0,,,,
Aldar Properties PJSC,92498670,"Al Raha Beach,  51133",Abu Dhabi,971-2-8105555,http://www.aldar.com,6551078100.0,1062.0,,,,
Xervon Industrial Services L.L.C.,123046236,Po Box 47616,Abu Dhabi,5587159,,,1060.0,,,,
Saaed For Traffic Systems - L L C,121849462,Po Box 113966,Abu Dhabi,25563333,,,1027.0,,,,
Abu Dhabi General Transport Co.,42708422,PO Box 493,Abu Dhabi,971-02 5555700,,2855800000.0,1000.0,,,,
ESNAAD,42385722,,Abu Dhabi,971-26029000,http://www.esnaad.com,429500000.0,1000.0,,,,
China Petroleum Engineering & Construction Corporation-Abu Dhabi,123262652,Po Box 127345,Abu Dhabi,26789991,,,1000.0,,,,
Seidco General Contracting Company - L L C - Abu Dhabi,123158203,Po Box 44072,Abu Dhabi,26766635,http://www.seidco.net,,1000.0,,,,
NMC Special Medical Services,124754328,,Abu Dhabi,971-26332255,,,1000.0,,,,
Combined Group Contracting Co (K.S.Cc) - Alain,122940152,Po Box 112364,Abu Dhabi,26121999,,,1000.0,,,,
Abu Dhabi National Oil Company (Adnoc),123156938,Po Box 898,Abu Dhabi,6020000,,,,,,,
Kawader Services,121396064,Najda St 11th Fl - Abu Dhabi Islamic Bank Bldg,Abu Dhabi,971-26100900,http://www.kawader.ae,,1000.0,,,,
Khalidiyah Intersystems Company -L L C,121851757,Po Box 46554,Abu Dhabi,26665337,,,1000.0,,,,
Electrolux Maintenance & Commercial Services Ltd,122048050,Tourist Club Area,Abu Dhabi,6764200,,,1000.0,,,,
Technip Abu Dhabi,121662729,31-29 st muroor road holiday day inn,Abu Dhabi,971-26116000,,,1000.0,,,,
Abu Dhabi Investment Authority,102157216,PO Box 3600,Abu Dhabi,971-2-4150000,http://www.adia.ae,618000000.0,1000.0,,,,
NMC Hearing Care Centre,124754331,Airport Road Corner Elektra,Abu Dhabi,971-26332255,,,1000.0,,,,
Oil & Gas Construction Llc,123058503,Po Box 53266,Abu Dhabi,25500300,,138000000.0,1000.0,,,,
Abu Dhabi Authority For Culture And Heritage,123262646,Po Box 2380,Abu Dhabi,26215300,,,1000.0,,,,
Beach Rotana Hotel and Towers,42385717,Po Box 45200,Abu Dhabi,971-02 6979071,http://www.rotana.com,,1000.0,,,,
Al Taif Technical Services PJSC,111192695,Dusit Thani Complex Offices Tower,Abu Dhabi,971-2-4185500,http://www.altaif.ae,,1000.0,,,,
"Smith International Inc.,",122967251,Po Box 47080,Abu Dhabi,25553700,,,1000.0,,,,
Sunshine Tours,121417286,Abu Dhabi National Hotels,Abu Dhabi,971-4446856,,,1000.0,,,,
Global Aerospace Logistics - Llc,123227528,Po Box 128628,Abu Dhabi,5567556,http://www.gal.ae,,,,,,
Al Nasser Industrial Enterprises LLC,100971497,"Falcon Towers, 11th Floor,",Abu Dhabi,971-2-5059160,http://www.anieuae.com,912200010.0,1000.0,,,,
Gulf Piping Company W L L,133360944,Po Box 2739,Abu Dhabi,25553395,,,1000.0,,,,
Mabani Delma General Contracting Co (L.L.C),122895663,Po Box 692,Abu Dhabi,26775949,,,1000.0,,,,
Technical Supplies And Service Co - Tssc,122895662,Investment Park,Abu Dhabi,26768748,,,1000.0,,,,
Wadi Zuhoor General Contracting & Maintenance - L L C,122044449,Al Mussaffah Commercial,Abu Dhabi,501820049,,,1000.0,,,,
William Hare U A E - L L C,122044205,Po Box 9838,Abu Dhabi,25510444,,,1000.0,,,,
Bin Ham Electrical & Mechanical Installations Company - W L L,122896042,Po Box 46844,Abu Dhabi,24444050,,,1000.0,,,,
Union National Bank PJSC,42386106,PO Box 3865,Abu Dhabi,971-2-6741600,http://www.unb.co.ae,3510590100.0,968.0,,,,
Amb Hertel - L L C,122044234,Po Box 113955,Abu Dhabi,25501644,,,950.0,,,,
Valentine Maritime( Gulf) L.L.C.,127936603,Po Box 45877,Abu Dhabi,5555868,,,900.0,,,,
Site Technology Limited Company,121882662,Po Box 44942,Abu Dhabi,26346900,http://www.site-technology.com,,900.0,,,,
Senaat Co,42385895,Etihad Towers 3,Abu Dhabi,971-2-6144444,http://www.ghc.ae/,7343899900.0,900.0,,,,
Farah Leisure Parks Management - L L C,122044387,Po Box 128717,Abu Dhabi,6964444,,,850.0,,,,
Al Foah Company - L L C,123229934,Po Box 18454,Abu Dhabi,34170400,http://www.alfoah.ae,,818.0,,,,
U.T.S Kent - L L C,123227554,Po Box 34826,Abu Dhabi,24013200,,110000000.0,817.0,,,,
Toledo Electrical & Mechanical Works Company - L L C,122044257,Po Box 43542,Abu Dhabi,25550999,,,800.0,,,,
Butec .Co . Abudhabi Bransh,123262650,Po Box 109829,Abu Dhabi,24439869,,,800.0,,,,
United Printing & Publishing - Llc,123284555,Po Box 39955,Abu Dhabi,25039860,,,800.0,,,,
Park Inn Yas Isand Hotel,122044430,Po Box 93725,Abu Dhabi,26562222,,,800.0,,,,
"Hanna Shaikh Holding Company, L.L.C.",122044198,Po Box 693,Abu Dhabi,26772309,,,800.0,,,,
Mission General Services - Llc,122044194,Po Box 38093,Abu Dhabi,,,6613599.8,800.0,,,,
Petrofac Emirates LLC,111088230,PO Box 9398,Abu Dhabi,971-2-8104000,http://www.petrofac.com,226102200.0,800.0,,,,
Aldar Sorouh Properties PJSC,138507073,PO Box 51133,Abu Dhabi,971-2 8105555,http://www.aldar.com,1783552700.0,794.0,,,,
Johnson Controls International - L L C - Abu Dhabi,123284554,Po Box 32905,Abu Dhabi,6262773,,,781.0,,,,
Dorsch Holding Gmbh - Abu Dhabi,50089960,Po Box 26417,Abu Dhabi,26721923,http://www.dorsch.ae,,770.0,,,,
Spinneys Abu Dhabi LLC,42386083,PO Box 243,Abu Dhabi,971-2-5563643,http://www.spinneys-dubai.com/,850700010.0,754.0,,,,
Contracting & Trading Company - C A T,42385839,Po Box 250,Abu Dhabi,26417460,http://www.catgroup.net,,750.0,,,,
Bainounah Power Company,92461560,,Abu Dhabi,971-26731100,http://www.bpc.ae,,750.0,,,,
Litwin Pel Co - Llc,133363773,Po Box 44715,Abu Dhabi,25070100,,,722.0,,,,
Litwin PEL LLC,111088165,44715 Mussaffah,Abu Dhabi,971-2-5070100,http://www.litwinme.ae,,722.0,,,,
Alpha Data L.L.C.,48584162,PO Box 45384,Abu Dhabi,971-02 6333644,http://www.alpha.ae,,700.0,,,,
Contracting And Trading Company,122874200,Po Box 250,Abu Dhabi,26417460,,,700.0,,,,
Beijing Construction Engineering Group Company - Abu Dhabi,123262651,Po Box 127363,Abu Dhabi,46740001,,,700.0,,,,
Universal Voltas L L C,133363586,Po Box 25513,Abu Dhabi,26338920,,,700.0,,,,
Securigaurd Middle East - L L C,123249958,Po Box 73696,Abu Dhabi,26426667,,,700.0,,,,
The Yas Hotel,120029889,Po Box 131808,Abu Dhabi,6560000,http://www.theyashotel.com,,700.0,,,,
Al Rahba Hospital,123228877,Po Box 34555,Abu Dhabi,25064034,,,700.0,,,,
Abu Dhabi Ship Building PJSC,42708423,P.O. Box 8922,Abu Dhabi,971-2-5028000,http://www.adsb.ae,700979980.0,688.0,,,,
Al Theeb Electrical & Mechanical Materials Trading - L L C,123109589,Po Box 25599,Abu Dhabi,25547636,,,670.0,,,,
Abu Dhabi Aviation,42385715,Abu Dhabi International Airport,Abu Dhabi,971-2-5758000,http://www.abudhabiaviation.com/,1611413000.0,653.0,,,,
Liwa Trading Enterprises L.L.C.,42385964,PO Box 45326,Abu Dhabi,971-02 6329600,http://www.liwastores.com,678299990.0,620.0,,,,
National Projects & Construction - L L C,107377822,Po Box 7856,Abu Dhabi,25097200,http://www.npcuae.com,,600.0,,,,
Sts Abu Dhabi Electro-Mechanical Company,123278874,Po Box 111123,Abu Dhabi,24488891,,,600.0,,,,
Gulf Piping Company WLL,103597501,PO Box 2739,Abu Dhabi,971-02 5553395,http://www.imcc.ae,315700010.0,600.0,,,,
Agility ( Abudhabi ) Pjsc,123730649,Po Box 93971,Abu Dhabi,5099599,,,600.0,,,,
Experts Computer Consultants - L L C,122044247,Po Box 54867,Abu Dhabi,26765722,,,600.0,,,,
International Metal and Construction Co.,96352919,PO Box 25156,Abu Dhabi,971-2 5553975,http://www.imcc.ae,794700010.0,600.0,,,,
Al Jaber Precision Engineering Establishment,124579463,,Abu Dhabi,971-25020602,http://www.ajeprecision.com,,600.0,,,,
Reach Contracting & General Maintenance,122044224,Po Box 54867,Abu Dhabi,26765722,,,600.0,,,,
Zener Electrical & Electronics Services L.L.C.,121851736,Po Box 3905,Abu Dhabi,25585285,,,600.0,,,,
Bam International Abu Dhabi - Llc,123158206,Po Box 47100,Abu Dhabi,26444100,,,600.0,,,,
United Printing & Publishing,133363578,Po Box 39955,Abu Dhabi,25039999,,,595.0,,,,
Petrofac-Gs Joint Venture,122940144,Po Box 9398,Abu Dhabi,28104289,,,580.0,,,,
Gulf Marine Services PLC,111192644,Mussafah Base,Abu Dhabi,971-2-5028888,http://www.gmsuae.com/,196554000.0,573.0,,,,
Abu Dhabi Pipe Factory - L L C,123730648,Po Box 4526,Abu Dhabi,25821600,,,550.0,,,,
Astraco Construction - L L C,121881517,Po Box 46370,Abu Dhabi,26343433,,,550.0,,,,
Central Bank of The United Arab Emirates,42385828,P.O.Box 854,Abu Dhabi,971-2-6652220,http://www.centralbank.ae,2735000000.0,530.0,,,,
Arkan Building Materials Company PJSC,95896176,PO Box 40307,Abu Dhabi,971-2-6666724,http://www.arkan.ae/,751797000.0,527.0,,,,
Al Reyami Steel Industries,123109593,Po Box 45873,Abu Dhabi,25512588,,,525.0,,,,
National Media Council,120029874,P.O. Box 3790,Abu Dhabi,24044333,http://www.abudhabi.ae,,501.0,,,,
Thomas Cook Al Rostamani Company L L C,121882691,Po Box 261,Abu Dhabi,26727500,,,500.0,,,,
Euro Mechanical & Electrical Contractors Ltd.,42385876,PO Box 46153,Abu Dhabi,971-26781133,http://www.euromechanical.com,,500.0,,,,
Abu Dhabi National Foodstuff Company - W L L,123114707,Po Box 2378,Abu Dhabi,26731000,,,500.0,,,,
Al Otaiba and Garg Contracting Company Ltd.,48609190,PO Box 43089,Abu Dhabi,971-02 6274936,,274600010.0,500.0,,,,
Engineering Maintenance Company-Emco,133363591,Po Box 3532,Abu Dhabi,26340445,,,500.0,,,,
Voltas Ltd,122882504,Po Box 25513,Abu Dhabi,24457882,,,500.0,,,,
Maf Hypermarkets Llc - Abu Dhabi Branch,122044202,Po Box 4933,Abu Dhabi,26817100,,,500.0,,,,
Al Mariah United Co.,42385971,"PO Box 206, Hamdan St.",Abu Dhabi,971-02 6771741,http://www.almariah.com,144000000.0,500.0,,,,
Compass Camea Fze,122044427,P O Box 46806,Abu Dhabi,24494769,,,500.0,,,,
Future Pipes Industrial Company - W L L,122781994,Po Box 29205,Abu Dhabi,26270008,,,500.0,,,,
Control Contracting & Trading Company Pvt Ltd,122882371,Po Box 46089,Abu Dhabi,25548000,,45262299.0,500.0,,,,
Abu Dhabi Oilfield Services Establishment,42385741,PO Box 4015,Abu Dhabi,971-2 6344441,http://www.adosuae.com,1783000000.0,500.0,,,,
Industrial Development Company Llc (Al Tanmiya Industrial C,122895540,Po Box 37388,Abu Dhabi,25500785,,,500.0,,,,
International Turnkey Systems L.L.C. - Dubai,42386977,PO Box 7087,Abu Dhabi,971-04 3972220,http://www.its.ws,236899990.0,500.0,,,,
Arabian Castles General Contracting & Maintenance Establishment,123229939,Po Box 3930,Abu Dhabi,26214678,,,500.0,,,,
Supervision Committee For Expansion Of The Abu Dhabi International Airport,121851670,Po Box 38811,Abu Dhabi,25095000,,,500.0,,,,
Al Tafseer Contracting & General Maintenance Company - W L L,122895550,Po Box 47804,Abu Dhabi,26419805,,,500.0,,,,
Schlumberger Middle East S.A.,96352922,PO Box 21,Abu Dhabi,971-02 6333600,http://www.slb.com,1327100000.0,500.0,,,,
Dorsch Consult Abu Dhabi,125631532,Salam Street,Abu Dhabi,971-26721923,http://www.dorsch.com,,500.0,,,,
Al Masaood Oil Industry Supplies & Services Co.,42385979,,Abu Dhabi,971-26267666,http://www.almasaoodoiss.com,,500.0,,,,
Mabani,42386050,PO Box 692,Abu Dhabi,971-02 6775949,http://www.mabani.org,277899990.0,500.0,,,,
Emirates Motor Co.,92028287,,Abu Dhabi,971-2-444-000,http://www.emc.mercedes-benz.com,1164400000.0,500.0,,,,
Target Engineering Construction Company - L L C,123730290,National Bank Of Umm Al Quwain Building Hamdan Road,Abu Dhabi,26714700,http://www.target.ae,,500.0,,,,
Al Madina Group Of Establishments,123167911,Po Box 4148,Abu Dhabi,26795999,,,500.0,,,,
Al Ain Dairy,48584155,Al Ain Dairy Farm Building,Abu Dhabi,971-3-7832111,http://www.alaindairyuae.com/,1425200000.0,500.0,,,,
Future Pipes Industrial Company - W L L,122783147,Po Box 29205,Abu Dhabi,26270008,,,500.0,,,,
Injazat Data Systems,95677002,"Mohamed Bin Zayed City,  8230, Z-23",Abu Dhabi,971-2-6992700,http://www.injazat.com/,253800000.0,500.0,,,,
Al Bawardi Computer Est,123109133,Po Box 4118,Abu Dhabi,6346999,,,500.0,,,,
Orient Contracting Company WLL,42386035,PO Box 348,Abu Dhabi,971-02 6276761,http://www.adcecogroup.com,200399990.0,500.0,,,,
International Turnkey Systems L.L.C.,42385941,PO Box 7087,Abu Dhabi,971-02 6726111,http://www.its.ws,237200000.0,500.0,,,,
Neopharma LLC,92509504,Neopharma Building,Abu Dhabi,971-2-5501000,http://www.neopharma.ae/,,500.0,,,,
Al Jazira Sports And Cultural Club,123228873,Po Box 2750,Abu Dhabi,4454455,,,500.0,,,,
Support Services & Catering Company L.L.C,121840536,"Khalefa Hareb Al Khalili Building Um Al Nar ,Corniche Street",Abu Dhabi,25585274,,,450.0,,,,
Foresight Heavy Machinery Equipments Trading - L L C,122189654,Po Box 128288,Abu Dhabi,25508088,,,450.0,,,,
Hi Tech Concrete Products L.L.C.,122048038,Po Box 5151,Abu Dhabi,25501220,http://www.hitechad.ae,,450.0,,,,
Abu Dhabi Coating Enterprises L.L.C.,48609236,PO Box 2603,Abu Dhabi,971-02 5559136,http://www.imcc.ae,162600010.0,450.0,,,,
Intergulf General Contracting - L L C,122189620,Po Box 514,Abu Dhabi,26274180,,,440.0,,,,
Global Process Systems Llc,123230005,Po Box 107176,Abu Dhabi,25822233,,,440.0,,,,
Le Royal Meridien - Abu Dhabi,120029908,Po Box 45505,Abu Dhabi,26742020,http://www.leroyalmeridien-abudhabi.com,,435.0,,,,
Trans Gulf Ready Mix Concrete - L L C,122485705,Po Box 9009,Abu Dhabi,25511777,,,430.0,,,,
Time Electro & Contracting Company W L L,122048020,Po Box 70148,Abu Dhabi,26788621,,,430.0,,,,
Abu Dhabi J & P - L L C,123158214,Po Box 2536,Abu Dhabi,6221533,,,421.0,,,,
Gulf Specialized Mechanical and Engineering Services Company L.L.C.,48284254,PO Box 8865,Abu Dhabi,971-02 5552855,http://www.imcc.ae,233399990.0,420.0,,,,
Lulu Centre - L L C,122145304,Po Box 4048,Abu Dhabi,24182000,,,414.0,,,,
MDS UAE Holdings,42385990,PO Box 7899,Abu Dhabi,971 (2) 6276354,,864900020.0,400.0,,,,
Booz And Company - Middle East,92460889,Adcb Building 8Th Floor Office 801 Salam Street,Abu Dhabi,26992400,http://www.booz.com,,400.0,,,,
Emirates Float Glass LLC,121419842,,Abu Dhabi,971-25994000,http://www.dubaiinvestments.com,,400.0,,,,
Bin Hamoodah Trading and General Services,48609183,"14th Floor, Bin Hamoodah Tower, Sheikh Khalifa Street",Abu Dhabi,971-2 6276600,http://www.bht.ae,115200000.0,400.0,,,,
Crowne Plaza Hotel Yas Island,123284568,Po Box 41880,Abu Dhabi,26563000,,,400.0,,,,
Al Mutawa Marine Work L L .C,136878285,Po Box 46100,Abu Dhabi,25552800,,,400.0,,,,
Al Reem General Trading & Representation Of Companies Establishment,123108846,Po Box 3984,Abu Dhabi,26722356,,,400.0,,,,
Al Ghaith Oil-Field Supplies & Services Company Limited,123249959,Po Box 268,Abu Dhabi,25553422,,,400.0,,,,
Alba Tech Construction & Development Llc,122044383,Po Box 52134,Abu Dhabi,26266654,,,400.0,,,,
African & Eastern Company (Near East) L L C,121882649,Po Box 32520,Abu Dhabi,26771763,,39000000.0,400.0,,,,
Abu Dhabi Precast L L C,123262645,Po Box 38605,Abu Dhabi,25501033,,,400.0,,,,
Abu Dhabi National Indust Projects Co,111192682,PO Box 25905,Abu Dhabi,971-2-5500577,http://www.adnip.com/,223000000.0,400.0,,,,
Cape East LLC,42385825,14 Al Mussafah,Abu Dhabi,971-02 5555199,http://www.capeplc.com/cape/pages/contactus/regionalcontacts/regionalgulf,222000000.0,400.0,,,,
Al Ruwais Industrial Gases Company - L L C,42386059,Al Ruwais Industrial Gases Company Street 10 And 12; Mussafah In,Abu Dhabi,25553809,http://www.eigco.com,,400.0,,,,
Gulf Air,42385904,Po Box 573,Abu Dhabi,26323741,http://www.gulfairco.com,,400.0,,,,
Al Ghurair Iron & Steel - L L C,122895535,Po Box 106065,Abu Dhabi,26593400,http://www.agis.ae,,400.0,,,,
Asmak Seafood Processing Co. LLC,136809643,Delma Island Western region,Abu Dhabi,971-2-8782161,,,400.0,,,,
Enerflex Middle East Ltd. - Abu Dhabi,123278930,Po Box 48294,Abu Dhabi,24430015,,,400.0,,,,
Ghobash Trading and Investment,100971512,PO Box 47233,Abu Dhabi,971-02 6447111,http://www.ghobash.com,3470500000.0,400.0,,,,
Al Fahad Smart Systems,123227527,Po Box 59519,Abu Dhabi,25565800,,,400.0,,,,
National Technical Services Co. Llc,123278884,Po Box P O Box 32571,Abu Dhabi,,,,400.0,,,,
Gulf Diagnostic Centre Hospital - W L L,92461009,Po Box 30702,Abu Dhabi,26658090,http://www.gdc-hospital.com,,400.0,,,,
Bin Hamoodah Company L.L.C.,50095781,PO Box 203,Abu Dhabi,971-02 6276600,http://www.binhamoodah.ae,910599980.0,400.0,,,,
Booz & Company (M E) Ltd - Abu Dhabi,123278935,Po Box 43754,Abu Dhabi,26992400,,,400.0,,,,
Al Firas General Contracting,123278878,Po Box 4490,Abu Dhabi,26669600,,150000000.0,400.0,,,,
Gulf Ready Mix,123098467,Po Box 8556,Abu Dhabi,25511117,,,400.0,,,,
United Arab Bank - Abu Dhabi,123114576,Po Box 3562,Abu Dhabi,6275000,,,396.0,,,,
Abu Dhabi Sheraton Hotel,123114574,Po Box 640,Abu Dhabi,26773333,,96000000.0,390.0,,,,
Itm O&M Company Limited - Abu Dhabi,123249951,Po Box 46421,Abu Dhabi,25582700,,,386.0,,,,
Halliburton Worldwide Limited - Abu Dhabi,92511725,Po Box 57,Abu Dhabi,26942200,http://www.halliburton.com,,385.0,,,,
MERCURY INTERNATIONAL ELECTRO-MECHANICAL CONTRACTING LLC,122044450,Office 1204 Emirates National Investment Building Dalma Street,Abu Dhabi,971-2-4438300,,,385.0,,,,
Al Fahad Electrical Systems L.L.C.,122970704,Po Box 59519,Abu Dhabi,25565800,,,380.0,,,,
White Aluminium Enterprises - L L C,122873526,Po Box 30665,Abu Dhabi,25500830,,,370.0,,,,
Al Mansoori Specialized Engineering Company - Llc,135836350,Po Box 3374,Abu Dhabi,26776335,,,368.0,,,,
Thales Advanced Solutions - L L C,122895667,Po Box 5254,Abu Dhabi,6421133,,,360.0,,,,
Ruwais Fertiliser Industries FERTIL,42386058,PO Box 2288,Abu Dhabi,971-02 6021111,http://www.fertil.com,355200010.0,360.0,,,,
Al Fujairah Asia Power . Co- Psc-,122482850,Po Box 110865,Abu Dhabi,24918098,,,350.0,,,,
Australian Piling Technology Co. Llc,122044412,Al Najda Street,Abu Dhabi,6341127,,,350.0,,,,
Emke Store,122922253,Po Box 4048,Abu Dhabi,26732131,,,350.0,,,,
Al Gurg Building Services,123257601,Po Box 4938,Abu Dhabi,26721244,,,350.0,,,,
Abu Dhabi Refreshmets Company - L L C,123262661,Po Box 996,Abu Dhabi,24447234,,,350.0,,,,
Tecnimont S P A,121851696,Po Box 51120,Abu Dhabi,26450988,,,350.0,,,,
Electromechanical Company - L L C,46490064,Po Box 732,Abu Dhabi,26262800,,,350.0,,,,
Fibrex - Llc,122471366,Po Box 462,Abu Dhabi,25511462,,,350.0,,,,
Ed Zublin Ag,121851689,Po Box 28708,Abu Dhabi,26344039,,,350.0,,,,
Gulf Industrial Services Company,42385908,PO Box 46625,Abu Dhabi,971-2-4067888,http://www.gisco-uae.com/,45599998.0,350.0,,,,
Saipem Abu Dhabi,123249947,Po Box 47117,Abu Dhabi,26989898,,,350.0,,,,
Weir Engineering Services Company Llc,92683084,Po Box 4752,Abu Dhabi,25554108,http://www.wescouae.com,74000000.0,350.0,,,,
Le Meridien Hotel Abu Dhabi,42385986,Tourist Club Area,Abu Dhabi,971-02 6446666,http://www.lemeridien-abudhabi.com,779000000.0,350.0,,,,
Emke Store,122787017,Po Box 4048,Abu Dhabi,6421800,,,,,,,
Al Jaber Shipping Agency & Marine Works,123119070,Mussafah Next to Mina Mussafah,Abu Dhabi,971-25554300,http://www.ajshipping.com,,350.0,,,,
Mohammed Al Quebaisy  Enterprises L.L.C,122874203,Po Box 2333,Abu Dhabi,26423999,,,350.0,,,,
Tebodin Middle East Ltd.,42386094,PO Box 2652,Abu Dhabi,971-02 4066000,http://www.tebodin.com,62092999.0,350.0,,,,
Hyder Consulting Middle East Ltd.,42385748,Po Box 2774,Abu Dhabi,971-02 6333400,,100000.0,341.0,,,,
Honeywell Middle East Company Limited Abu Dhabi,123730650,Po Box 45595,Abu Dhabi,44505800,,,340.0,,,,
Emirates Cement Factory,42385755,"17th floor, Prestige Tower, Mohammed Bin Zayed City",Abu Dhabi,971-2-6666724,http://www.arkan.ae,352000000.0,340.0,,,,
Abu Dhabi Petroleum Ports Operating Company,42385743,,Abu Dhabi,971-26028000,http://www.irshad.ae,1205400000.0,338.0,,,,
UTS Carrier L.L.C.,42386115,PO Box 3977,Abu Dhabi,971-02 6724243,http://www.carrieruae.com,156000000.0,330.0,,,,
Al Mansouri Wireline Services Company - L L C,123249942,Po Box 3374,Abu Dhabi,25554134,,96129997.0,328.0,,,,
Foodco Holding PJSC,43871885,FOODCO Holding Building,Abu Dhabi,971-2-6731000,http://www.foodco-uae.com,151435590.0,326.0,,,,
Gulf Star Commodities,123229958,Po Box 27608,Abu Dhabi,226420700,,,325.0,,,,
Al Masaood Bergum W L L,123084619,Po Box 322,Abu Dhabi,26742100,,,320.0,,,,
Jamal Al Nuaimi General Contracting Llc,122044266,Po Box 42158,Abu Dhabi,224459949,,128000000.0,320.0,,,,
Adyard Abu Dhabi L.L.C.,42385967,PO Box 7604,Abu Dhabi,971-02 5547722,http://www.topazworld.com,,320.0,,,,
National Marine Services Co.,138909884,PO Box 7202,Abu Dhabi,971-02 6029500,,,320.0,,,,
Electra Abu Dhabi L.L.C.,51575146,PO Box 121,Abu Dhabi,971-02 6778077,http://www.electra.ae,37500000.0,312.0,,,,
Crowne Plaza Abudhabi,133363758,Po Box 3541,Abu Dhabi,22610000,,,310.0,,,,
C C C Under Water Eng.S.A.L Shj.Br.,122873889,Po Box 224,Abu Dhabi,25553656,,,310.0,,,,
Al Bawardi Group,42385806,PO Box 4118,Abu Dhabi,971-2 6815957,http://www.ae.ae,113600000.0,300.0,,,,
Dhafir Group of Cos.,42385853,PO Box 62192,Abu Dhabi,971-02 6774670,http://dhafirgroup.com,166500000.0,300.0,,,,
Al Hasoun Sejong Electromechanical Establishment,122881338,Po Box 34974,Abu Dhabi,25500301,,,300.0,,,,
Concorde Trading Company L.L.C.,42385835,PO Box 2617,Abu Dhabi,971-2 6668770,http://www.concordeuae.com,112000000.0,300.0,,,,
United Carrier Company - L L C,123227550,Po Box 3977,Abu Dhabi,26724243,,6290000.0,300.0,,,,
Technical Supplies & Services Company - L L C,122882405,Po Box 410,Abu Dhabi,26447912,,65000000.0,300.0,,,,
D G Jones and Partners Limited - Abu Dhabi,42385949,P.O. Box 631,Abu Dhabi,971-02 6725999,http://www.dgjonesworld.com,390299990.0,300.0,,,,
Crowne Plaza Abu Dhabi,42385925,"PO Box 3541, Sheikh Hamdan St.",Abu Dhabi,971-02 6210000,http://www.ichotelsgroup.com,664200010.0,300.0,,,,
Al Seer Marine Supplies & Equipment Company - L L C,123109588,Po Box 33639,Abu Dhabi,25511336,,,300.0,,,,
Hotel Inter-Continental Abu Dhabi,92461033,PO Box 4171,Abu Dhabi,971-2 6666888,http://www.ihg.com/intercontinental/hotels/gb/en/reservation,667799990.0,300.0,,,,
General Womens Union,122940734,Karama,Abu Dhabi,24475333,,,300.0,,,,
Euro Mechanical Instrument Services L L C,122873515,Po Box 4615,Abu Dhabi,26766412,,,,,,,
Falcon Aviation Services Llc,122895549,Po Box 62030,Abu Dhabi,24448866,http://www.falconaviation.ae,,300.0,,,,
Al Faris International Heavy Equipment Rental,123227556,Po Box 106003,Abu Dhabi,25554701,,,300.0,,,,
Al Ghazal Transport Co.,124754563,,Abu Dhabi,971-24447228,http://www.adsh.com,,300.0,,,,
Alas Emirates Ready Mix,122873882,Po Box 47679,Abu Dhabi,25828802,,,300.0,,,,
Grand Stores,42385901,,Abu Dhabi,971-26312100,http://www.grandstores.com,338399990.0,300.0,,,,
WESCO Abu Dhabi,42386119,Coriniche St Mussafah Industrial Area,Abu Dhabi,971-25554108,http://www.wescouae.com,108600000.0,300.0,,,,
Al Jaber Carpentry & Decor L.L.C,124718388,,Abu Dhabi,971-25547075,http://www.aljaber.com,,300.0,,,,
New York University In Abu Dhabi Corporation - Abu Dhabi,123278872,Po Box 129188,Abu Dhabi,26284000,,,300.0,,,,
Fathima Supermarket Wll,122376002,Po Box 4710,Abu Dhabi,24433490,,400000000.0,300.0,,,,
"Al Ahlia Oil-Fields Development Co., Owned By Al Ahlia Gen Trading Co Pvt Ltd.",123262659,Po Box 4033,Abu Dhabi,25553555,,,300.0,,,,
Cebarco - Wct - W L L - Abu Dhabi,123262654,Po Box 127717,Abu Dhabi,25013433,,,300.0,,,,
Serco-IAL Limited,121402656,Abu Dhabi Islamic Bank Building Najda Street,Abu Dhabi,971-26335547,,,300.0,,,,
Fabtech Abu Dhabi - L L C,123158207,Po Box 42287,Abu Dhabi,25500167,,,300.0,,,,
Al Otaiba Group of Establishments,42386037,PO Box 467,Abu Dhabi,971-02 4443333,,,300.0,,,,
Arabian Industrial Gas Company - L L C - Abu Dhabi,123262660,Po Box 30242,Abu Dhabi,26320620,,,300.0,,,,
Gulf & Safa Dairies Co. L.L.C - Abu Dabi,123257651,Po Box 2422,Abu Dhabi,25582441,,,300.0,,,,
Delight Cleaning Services Est,122374166,Po Box 71535,Abu Dhabi,6789216,http://www.delightcleaning.com,,300.0,,,,
Spaceage Electrical Switchgear Company Co Wll,123284567,Po Box 43693,Abu Dhabi,25500150,,,300.0,,,,
Matrix Construction,121881591,Po Box 46370,Abu Dhabi,26341575,,36262299.0,300.0,,,,
Corrpro Companies Middle East,123249934,Al Nasser Street,Abu Dhabi,26391100,,,300.0,,,,
Civil Power General Contracting - L.L.C,122044240,Po Box 3514,Abu Dhabi,26678812,http://www.cpcemirates.ae,,300.0,,,,
Galva Coat Galvanizing & Lighting Poles,121882593,Po Box 8485,Abu Dhabi,25511188,,,300.0,,,,
Sahari Trading And Importing Est,121881435,Po Box 687,Abu Dhabi,26445899,,60000000.0,300.0,,,,
Al Raha Gardens Property LLC,121396663,,Abu Dhabi,971-26964444,,,300.0,,,,
Professional Security Systems,122088644,First Zayed Road Khalidiya,Abu Dhabi,26350087,,,297.0,,,,
Arab Bank for Investment & Foreign Trade,42385773,PO Box 46733,Abu Dhabi,971-2-6721900,http://www.arbift.com,743338010.0,293.0,,,,
Khatib and Alami - Abu Dhabi,42385956,PO Box 2732,Abu Dhabi,971-02 6662885,http://www.khatibalami.com,103500000.0,292.0,,,,
"Rolf Jensen & Associates, International, Inc",121849424,Al Ghaith Holding Tower Airport Road,Abu Dhabi,24146663,,,280.0,,,,
Al Diar Gulf Hotel and Resort,138909898,PO Box 73837,Abu Dhabi,971-02 4414777,http://www.southtravels.com/middleeast/uae/abudhabi.html,598799990.0,269.0,,,,
Arab Bank PLC-Abu Dhabi,42385774,PO Box 875,Abu Dhabi,971-02 6392225,http://www.arabbank.ae,,267.0,,,,
Total Abu Al Bu Khoosh S.A.,42386102,11th Floor East Tower Abu Dhabi Mall Tourist Club Area,Abu Dhabi,971-2-6986666,http://www.tabka.ae,747400020.0,260.0,,,,
Hilton International Al Ain,42385924,PO Box 1333,Al Ain,971-03 7686666,http://www.hilton.com,578700010.0,260.0,,,,
Abu Dhabi National Insurance Co. PSC,42385735,PO Box 839,Abu Dhabi,971-2-6264000,http://www.adnic.ae,1588133100.0,257.0,,,,
Union Pipes Industry - L L C,123229957,Po Box 9650,Abu Dhabi,25500102,,697804690.0,250.0,,,,
Chateau Building Materials,120010787,P.O. Box 94684,Abu Dhabi,26423226,http://www.chateaubp.com,,250.0,,,,
Mubadala Development Company PJSC,98725639,PO Box 45005,Abu Dhabi,971-2-4130000,http://www.mubadala.com,32661227000.0,250.0,,,,
Al Jaber Protective Coating L.L.C.,124718393,,Abu Dhabi,971-25541050,http://www.aljaber.com,,250.0,,,,
Anticorrosion Protective Systems L.L.C.,42385770,PO Box 4705,Abu Dhabi,971-02 6722894,http://www.aps-corporate.com,159700000.0,250.0,,,,
National Gas Shipping Company Ltd. (NGSCO),42386015,Sheikh Khalifa Energy Complex,Abu Dhabi,971-26028600,http://www.adnatcongsco.com,,250.0,,,,
White Rose Tradind,122635893,Po Box 4330,Abu Dhabi,26342555,,35000000.0,250.0,,,,
Emirates Steel Industries,92500563,PO Box 9022,Abu Dhabi,971-02 5072144,http://www.esi-steel.com,572700010.0,250.0,,,,
Aldar Laing O'Rourke Plant Llc,120029920,Po Box 110800,Abu Dhabi,25566246,,55000000.0,247.0,,,,
Abu Dhabi Motors L.L.C.,92460754,PO Box 46468,Abu Dhabi,971-02 5588000,http://www.alhamid-group.com,461100010.0,243.0,,,,
United Alsaqer Group of Cos.,42385918,PO Box 46468,Abu Dhabi,971-02 6981111,http://www.alsaqergroup.com,188600010.0,243.0,,,,
Aloft Abu Dhabi Hotel,120000134,Po Box P.O.Box 5546,Abu Dhabi,26545000,http://www.aloftabudhabi.com,,235.0,,,,
Gulf Steel Industries Company Ltd.,100971498,PO Box 9054,Abu Dhabi,971-02 5510098,http://www.anieuae.com,241800000.0,230.0,,,,
Al Sultan Cement Factory (Adic),120012262,Po Box 8423,Abu Dhabi,25824110,http://www.alsultanfactory.com,,225.0,,,,
United Arab Bank PJSC - Abu Dhabi,42386107,PO Box 3562,Abu Dhabi,971-02 6275000,http://www.uab.ae,9996700200.0,223.0,,,,
Emirates Driving Company PJSC,92499770,"Street no. 17, Mussafah Industrial Area,",Abu Dhabi,971-2-5027100,http://www.edcad.ae/,199855190.0,221.0,,,,
Al Jaber Steel Products L.L.C.,124718386,,Abu Dhabi,971-25020705,,,220.0,,,,
International Fish Farming Holding Co,51347617,"Silver Wave Tower, Unit 404, Meena Road,",Abu Dhabi,971-2-6448090,http://www.asmak.biz,299087010.0,218.0,,,,
Novotel Centre Hotel,42386028,PO Box 47136,Abu Dhabi,971-02 6333555,http://www.novotel.com,438299990.0,206.0,,,,
British Embassy,92460871,Khalid Bin Al Waleed Road,Abu Dhabi,26344216,http://www.ukinuae.fco.gov.uk,,201.0,,,,
Embassy Of Islamic Republique Of Iran,92460855,P.O. Box 4080,Abu Dhabi,24447618,http://www.iranembassy.org.ae,,201.0,,,,
Embassy Of Eritrea,92460910,P.O. Box 2597,Abu Dhabi,26331838,,,201.0,,,,
Embassy Of Bahrain,92460907,P.O. Box 3367,Abu Dhabi,26657500,,,201.0,,,,
Embassy Of Sri Lanka,92460923,P.O. Box 46534,Abu Dhabi,26426666,http://www.srilankaembassyuae.com,,201.0,,,,
Embassy Of Belgium,92460849,P.O. Box 3686,Abu Dhabi,26319449,http://www.diplomatie.be,,201.0,,,,
Embassy Of Switzerland,92460924,P.O. Box 46116,Abu Dhabi,26274636,http://www.eda.admin.ch/uae,,201.0,,,,
Japan Embassy,92460857,Manaseer Al-Batenyia Street No. 26 From Al-Nahyan Street,Abu Dhabi,24435696,http://www.uae.emb-japan.go.jp,,201.0,,,,
Embassy Of Bosnia & Herzegovina,92507441,P.O. Box 43362,Abu Dhabi,26444164,http://www.bhmc.ae,,201.0,,,,
Embassy Of Spain,92460922,P.O. Box 46474,Abu Dhabi,26269544,http://www.maec.es,,201.0,,,,
Embassy Of Algeria,92460904,P.O. Box 3070,Abu Dhabi,24448949,http://www.mae.dz,,201.0,,,,
Embassy Of The State Of Qatar,92460870,P.O. Box 3503,Abu Dhabi,24493300,http://www.embassyconsulates.com,,201.0,,,,
Holiday Inn - Abu Dhabi,120029817,Po Box 48111,Abu Dhabi,4454777,http://www.holidayinn.com/abudhabi,,200.0,,,,
Abu Dhabi Oil Company Ltd.,42385740,PO Box 630,Dubai,971-2 6661100,http://www.cosmo-oil.co.jp,573599980.0,200.0,,,,
Nama Mott MacDonald LLC,121707182,Hamdaan Street No706 Algaith Twr,Abu Dhabi,971-26262966,,,200.0,,,,
Athena Emirates LLC,126344148,PO Box 54008,Abu Dhabi,971-2-679-7666,http://www.athena-sa.gr,,200.0,,,,
Taweelah Asia Power Company PSC,92461559,"Taweelah Power Complex,  32255",Abu Dhabi,971-2-5627000,http://www.tapco.ae/,,200.0,,,,
Al Jaber Fusion-Bonded Epoxy Coating Plant,124754272,,Abu Dhabi,971-25541050,,,200.0,,,,
C & J Gulf Pipe Coating Est.,139494448,,Abu Dhabi,971-2-5553-453,http://www.cjengg.com,,200.0,,,,
Al Hashem Marble Co.,44040249,PO Box 941,Abu Dhabi,971-02 5515700,http://www.ahmc.ae,395500000.0,200.0,,,,
Velosi Certification Services L.L.C,121399702,No 201 & 205 Block B Abu Dhabi Bus Hub ICAD-1,Abu Dhabi,971-25502600,,,200.0,,,,
Emircom,94184582,PO Box 34895,Abu Dhabi,971-02 6449088,http://www.emircom.com,84599998.0,200.0,,,,
Cebag Middle East L L C,92460764,Po Box 7125,Abu Dhabi,26730400,http://www.cebag.com,,200.0,,,,
Precision Drilling Services Me Wll,50092982,Po Box 2146,Abu Dhabi,26747333,http://www.meintranet.wetherford.com,,200.0,,,,
Abu Dhabi General Services - Musanada - P J S C,120011378,Po Box 3700,Abu Dhabi,24042222,http://www.musanada.co.ae,,200.0,,,,
Gulf Total Tractebel Power Company,98460545,Najda Street,Abu Dhabi,971-2-694-3333,http://www.adwea.ae,,200.0,,,,
Elenco General Trading Est,42385862,PO Box 103,Abu Dhabi,971-02 6778880,http://www.elenco.co.ae,57700001.0,200.0,,,,
Abu Dhabi Gas Liquefaction Limited,42385727,,Abu Dhabi,971-26061111,http://www.adgas.com,23993600000.0,200.0,,,,
Giffin Graphics Company - W L L,122469191,Po Box 955,Abu Dhabi,26730555,,325000000.0,200.0,,,,
Securities & Commodities Authority,120011147,,Abu Dhabi,971-26277888,http://www.sca.ae,,200.0,,,,
Abu Dhabi National Co. for Build. Mater.,42385733,P.O. Box 2443,Abu Dhabi,971-2-6455500,http://www.bildco.ae,25277000.0,199.0,,,,
NMC Trading Services,124754459,,Abu Dhabi,971-26734300,http://www.nmct.ae,,185.0,,,,
Genipo Company Ltd.,42385896,PO Box 4126,Abu Dhabi,971-02 6445286,,101100000.0,182.0,,,,
Gulf Paints and Adhesives Factory,44040250,"PO Box 15381, Industrial Area, Al Ain",Abu Dhabi,971-03 7212888,http://www.gulfpaints.com,135800000.0,180.0,,,,
"Mazroui Supplies, Contracts and Maintenance Est",42385984,PO Box 4265,Abu Dhabi,971-02 6723185,http://www.mscmest.com,100000000.0,180.0,,,,
Central Motors & Equipment LLC,42385944,,Abu Dhabi,971-2-554-6262,http://www.cmeuae.ae,230700000.0,180.0,,,,
Western Motors LLC,121681497,Hamdan St,Abu Dhabi,971-25546333,http://www.alfahim.ae,,180.0,,,,
Abu Dhabi Oil Company Limited (Japan) Adoc,123696041,PO Box 630,Abu Dhabi,971-26661100,,19061000000.0,175.0,,,,
AssetCo UAE,121399047,,Abu Dhabi,971-25587707,,,172.0,,,,
Emirates Data Clearing House,122895666,Po Box 17500,Abu Dhabi,508115450,,128292010.0,170.0,,,,
"Inchcape Shipping Services, Abu Dhabi",42385732,PO Box 247,Abu Dhabi,971-02 4081593,http://www.iss-shipping.com,501000000.0,170.0,,,,
Abu Dhabi Travel Bureau,42385747,PO Box 278,Abu Dhabi,971-2 6338700,http://www.abudhabitravelbureau.com,405100010.0,160.0,,,,
The Bank of Baroda Ltd.-Abu Dhabi,42385795,PO Box 2303,Abu Dhabi,971-02 6330244,http://www.bankofbarodauae.ae,7428799800.0,160.0,,,,
Insulco Emirates L L C,92461068,Po Box 103,Abu Dhabi,25553855,http://www.insulco.co.ae,,158.0,,,,
Al Ain Ahlia Insurance Co PSC,42385754,Al Ain Ahlia Insurance Company Building,Abu Dhabi,971-2-6119999,http://www.alaininsurance.com,262392000.0,151.0,,,,
Bin Omair Building Maintenance,123228885,Po Box 25172,Abu Dhabi,26721127,,16000000.0,150.0,,,,
Reliance Infotech,121418085,Build 2,Abu Dhabi,971-26323296,http://www.nmc.ae,,150.0,,,,
VINCI Construction Grands Projets (Abu Dhabi),125631425,12 - Al Omran Tower Tourist Club Area,Abu Dhabi,971-267-644-01,http://www.vinci.net,,150.0,,,,
NATIONAL SHIPPING GULF AGENCY COMPANY (ABU DHABI) LTD. L.L.C.,42386022,Plot 211 Freeport Area,Abu Dhabi,971-2-673-0500,http://www.gac.com/abudhabi,379799990.0,150.0,,,,
Consolidated Contractors Company (Underwater Engineering) S A L - Abu Dhabi,122882418,Po Box 224,Abu Dhabi,5553656,http://www.cccuwe.ae,90000000.0,150.0,,,,
Balfour Beatty (Abu Dhabi) Llc,92460741,Po Box 47770,Abu Dhabi,26767628,http://www.balfourbeatty.com,,150.0,,,,
Boskalis Westminster Middle East Ltd.,42385814,"PO Box 4831, 19th Floor Al Mansoor Tower, Al Salam St.",Abu Dhabi,971-2 6447306,http://www.boskalis.com,130800000.0,150.0,,,,
Arab Monetary Fund,42385777,PO Box 2818,Abu Dhabi,971-2 6171400,http://www.amf.org.ae,,150.0,,,,
Cimel Abu Dhabi Co.,51094377,PO Box 2889,Abu Dhabi,971-02 6773963,http://www.forrestgroup.com,83300003.0,150.0,,,,
Dar Al Binaa Contracting Co.,42385850,PO Box 201,Abu Dhabi,971-02 6391140,,83300003.0,150.0,,,,
Al Mazroui International Cargo Company L.L.C.,50664554,P.O. Box 2035,Abu Dhabi,971-02 6776096,,453200010.0,145.0,,,,
CEGELEC UAE,42385827,PO Box 47055,Abu Dhabi,971-02 6272680,http://www.cegelec.com,40500000.0,140.0,,,,
Tyco Fire and Security UAE L.L.C.,92461442,Po Box 3333,Abu Dhabi,971-02 6777776,http://www.tycofireuae.com,,139.0,,,,
City Pharmacy And Stores L L C,106238132,Po Box 2098,Abu Dhabi,22284969,http://www.citypharmacy.com,,135.0,,,,
Al Quebeisi S G B - L L C,42386047,Po Box 7574,Abu Dhabi,25554129,http://www.sgb.co.uk,,130.0,,,,
Shuweihat C M S International Power,120029819,Po Box 32398,Abu Dhabi,26342480,http://www.ipplc.com,,130.0,,,,
Summit Trading Company - L L C,92461402,Po Box 2390,Abu Dhabi,26743100,http://www.summit.ae,,125.0,,,,
Emirates Insurance Company P.S.C.,42385867,PO Box 3856,Abu Dhabi,971-2-6440400,http://www.eminsco.com,429240200.0,120.0,,,,
Al-Mansoori 3B Construction,120012176,P.O. Box 399,Abu Dhabi,26785918,http://www.m3b.co.ae,,120.0,,,,
PricewaterhouseCoopers - Abu Dhabi,42385841,"PO Box 45263, 9th Fl., E Twr., Abu Dhabi Trade Centre, Abu Dhabi Mall",Abu Dhabi,971-02 6946800,http://www.pwc.com,568799990.0,120.0,,,,
Baniyas Building Materials Company L.L.C.,42385793,PO Box 3475,Abu Dhabi,971-2 6444477,http://www.bbmcgroup.com,,120.0,,,,
Al Dhafra Insurance Company P.S.C.,42385854,Al Dhafra Insurance Company Building,Abu Dhabi,971-2-6721444,http://www.aldhafrainsurance.ae,230406600.0,115.0,,,,
Al Sagar Engineering Company L.L.C.,42386062,PO Box 697,Abu Dhabi,971-2 6778700,http://www.alsagareng.com,63799999.0,115.0,,,,
Dascam Consulting Limited - Abu Dhabi  Branch,121851691,Po Box 108664,Abu Dhabi,26656439,,70000000.0,115.0,,,,
Abu Dhabi National Paper Mill L.L.C.,98191436,PO Box 27683,Abu Dhabi,971-02 5501886,http://www.adnpm.ae,742500000.0,112.0,,,,
Emirates Western Petroleum Services,124718178,PO Box 8107,Abu Dhabi,971-26725637,http://www.ewpsco.ae,,110.0,,,,
Punj Lloyd Limited - Abu Dhabi,123249582,Po Box 28907,Abu Dhabi,26972222,,202000000.0,102.0,,,,
China Airlines,92461498,P.O. Box 346,Abu Dhabi,26264070,http://www.china-airlines.com,,101.0,,,,
Fugro Survey (Middle East) Ltd.,92461215,,Abu Dhabi,971-2-554-7810,http://www.fugro-uae.com,15200000.0,100.0,,,,
Hyssna International,42385929,"PO Box 46641, European Exhibition Furniture, Electra Rd.",Abu Dhabi,971-02 6767525,http://www.hyssnauae.com,61799999.0,100.0,,,,
Ernst and Young Abu Dhabi,42385874,PO Box 136,Abu Dhabi,971-02 6277522,http://www.ey.com,474000000.0,100.0,,,,
Two Four 54 -Fz - L L C,122479747,Po Box 2454,Abu Dhabi,24012454,,,100.0,,,,
Emirates Petrochemical Services Est,42385868,PO Box 44414,Abu Dhabi,971-02 6774545,,360000000.0,100.0,,,,
Al Khazna Insurance Company PSC,43871887,PO Box 73343,Abu Dhabi,971-2-6969700,http://www.alkhazna.com,18029499.0,100.0,,,,
Jotun Abu Dhabi (LLC),50084121,Mussafah Industrial Area West 4,Abu Dhabi,971-25510300,http://www.jotun.com,,100.0,,,,
Brothers Electro-Mechanical Contracting Est,42385819,PO Box 43758,Abu Dhabi,971-2 6794499,http://www.joysgroup.com,27400000.0,100.0,,,,
Arab African International Bank - Abu Dhabi,48584267,P.O. Box 928,Abu Dhabi,26323400,http://www.aaib.com,,100.0,,,,
Gulf Commercial Group Establishment,104248327,Po Box 43044,Abu Dhabi,6442999,http://www.gcg-es.com,15000000.0,100.0,,,,
Praxair Gulf Industrial Gases LLC,44120541,4th Floor Office No 3 Al Wahda Commercial Tower Hazza Bin Zayed Street,Abu Dhabi,971-26437210,http://www.gigcl.ae,224800000.0,100.0,,,,
Middle East Equipment & Trading,125631564,,Abu Dhabi,971-25559559,http://www.aljaber.com/en/Menu/Index.aspx,,100.0,,,,
Folcra Beach Industrial Company LLC,121419846,,Abu Dhabi,971-25510888,http://www.dubaiinvestments.com,,100.0,,,,
Janata Bank Limited - Abu Dhabi,42385947,"Box 2630, Obeid Sayah Al-Mansuri Bldg., Electra Rd.",Abu Dhabi,971-02 6344542,http://www.janatabank-bd.com,4674600100.0,100.0,,,,
Foodlands Restaurant,121418086,,Abu Dhabi,971-26330099,http://www.foodlands.com,,100.0,,,,
ABB Energy Automation S.p.A.,92460644,Al Ghaith Office Tower 15th Floor Hamdan Street,Abu Dhabi,971-26264062,http://www.mena.abb.com,,100.0,,,,
Salem Travel Agency,97182833,"Murror Rd., Opp Madina Zayed Shopping Ctr.",Abu Dhabi,971-02 6218000,http://salemtravelagency.com,146899990.0,100.0,,,,
Emirates Steel Establishment,123249709,Po Box 8975,Abu Dhabi,5511436,,11000000.0,99.0,,,,
Fanoy Gas - L L C,122044264,Po Box 46689,Abu Dhabi,26455227,,10000000.0,98.0,,,,
Kaddas Oilfield Services and Trading Co.,42385950,PO Box 3808,Abu Dhabi,971-02 5510051,http://www.kostco.ae,76500000.0,95.0,,,,
Weatherford Oil Tool Middle East Ltd.,124754592,Warehouse No 17 Roundabout No 5,Abu Dhabi,971-25544100,http://www.weatherford.com,,92.0,,,,
Euro Mechanical & Electrical Contracting Company - Llc,123284563,Po Box 46153,Abu Dhabi,26781133,,175000000.0,92.0,,,,
Talal Abu Ghazaleh & Company International - Abu Dhabi,104248332,Po Box P.O.Box4295,Abu Dhabi,26724425,http://www.tagorg.com,,90.0,,,,
Masaood John Brown Ltd.,42385976,PO Box 322,Abu Dhabi,971-02 6418814,http://www.masaoodjohnbrown.com,66500000.0,90.0,,,,
Gulf Business Machines (GBM) L.L.C.,48609208,PO Box 37543,Abu Dhabi,971-26275165,http://www.gbm4ibm.com/,14200000.0,90.0,,,,
SNC-Lavalin Gulf Contractors LLC,50086514,Abu Dhabi Trade Center Bldg West Tower 4th Floor,Abu Dhabi,971-26440001,http://www.snclavalin.com,,90.0,,,,
Al Khazna Insurance Company - Al Mussafah,123784237,Villa No 86 Opp Al Nahyan Campus Delma Street No 13,Abu Dhabi,971-26969700,http://www.alkhazna.com/,,88.0,,,,
Abu Dhabi Fund for Development,42385725,PO Box 814,Abu Dhabi,971-2 6677100,http://www.adfd.ae,,85.0,,,,
Arab Development Establishment,120012189,Po Box 2761,Abu Dhabi,26447719,,,83.0,,,,
Bin Brook General Contracting,42385808,"PO Box 879, Baniyas St.",Abu Dhabi,971-02 5584888,http://www.binbrook.com,124400000.0,80.0,,,,
Gulf Capital PJSC,99413948,PO Box 27522,Abu Dhabi,971-26716060,http://www.gulfcapital.com,,80.0,,,,
Mi Overseas,42385966,Po Box 4076,Abu Dhabi,26456677,http://www.miswaco.com,,80.0,,,,
Marjan Industrial Development Co.,42385710,Liwa Street,Abu Dhabi,971-26222114,http://www.alfahim.com/en/?T=1&ID=22,209800000.0,80.0,,,,
Gulf Technical Construction Company L.L.C,121707374,Electra St,Abu Dhabi,971-48112300,http://www.gulftcc.com,,80.0,,,,
National Telesystems & Services - L L C,92461208,Po Box 46787,Abu Dhabi,26763500,http://www.binjabr.com,,80.0,,,,
New Mix Ready Mix Industry - L L C,123098459,Po Box 33252,Abu Dhabi,25516660,,97000000.0,78.0,,,,
National Engineering Services & Trading Company- L.L.C,92507453,Po Box 7392,Abu Dhabi,28157777,http://www.nestuae.com,,77.0,,,,
Engineering Building Materials Company WLL,42385872,PO Box 3256,Abu Dhabi,971-02 6771179,,133500000.0,75.0,,,,
Bildco Reinforcing Steel Services,136809854,,Abu Dhabi,971-2-5559183,,,75.0,,,,
Emirates Kitchen Equipment Company L.L.C.,122895554,Po Box 46711,Abu Dhabi,26448182,,45000000.0,75.0,,,,
Construtora Norberto Odebrecht S.A.,121418919,,Abu Dhabi,971-26679911,http://www.odebrecht.com,,75.0,,,,
Weatherford Bin Hamoodah L.L.C.,42386118,PO Box 4503,Abu Dhabi,971-02 5544100,http://www.weatherford.com,253300000.0,70.0,,,,
Solus Emirates,42386079,PO Box 47044,Abu Dhabi,971-02 6742739,,38200001.0,70.0,,,,
Al Injazat Technical Services,126194481,Po Box 42895,Abu Dhabi,26226030,,,70.0,,,,
Emirates Property Investment Co.,92028286,,Abu Dhabi,971-800-37426,http://www.epico.ae,146000000.0,70.0,,,,
Intertek Moody,92461191,"Po Box 47754, Nahyan",Abu Dhabi,26428005,http://www.moodyint.com,,70.0,,,,
Axiome Pipes & Fittings Trading L.L.C,122044197,"M-6, Mubarak Salem Hamad Rukadh Al Amiri Building Al Dhafra Stre",Abu Dhabi,26428844,,147800000.0,70.0,,,,
Sigma Specialised Inspection,48960700,"PO Box 3555, 75 St., Zone 6, Mussafah Industrial Area",Abu Dhabi,971-02 5510400,http://www.sigma.ae,36599998.0,68.0,,,,
Abu Dhabi National Tanker Company,42385739,Sheikh Khalifa Energy Complex Takreer Tower 11th & 12th Floors,Abu Dhabi,971-26028400,http://www.adnatco.com,186899990.0,68.0,,,,
Waha Capital PJSC,43563918,PO Box 28922,Abu Dhabi,971-26677343,http://www.wahacapital.ae,159847790.0,66.0,,,,
Electrical Lighting Company W L L,122882370,Po Box 4109,Abu Dhabi,26731177,,89000000.0,63.0,,,,
Al Wathba National Insurance Company,51326102,P.O Box 45154,Abu Dhabi,971-2-6770566,http://www.awnic.com,302238010.0,62.0,,,,
Snamprogetti,92461375,Najda Street Micco Building  Ninth Floor,Abu Dhabi,26780122,http://www.snamprogetti.eni.it,,61.0,,,,
Freight International L L C,92460984,Po Box 26945,Abu Dhabi,56322372,http://www.freightinternational.ae,542400.0,61.0,,,,
Electra Abu Dhabi W L L,123730654,Po Box 121,Abu Dhabi,6778077,,40000000.0,60.0,,,,
Hydra Properties LLC,100971467,PO Box 62162,Dubai,971-2-6581898,http://www.hydraproperties.com/,125100000.0,60.0,,,,
Al Hamad General Contracting Est,123087504,Po Box 30331,Abu Dhabi,25511888,,4000000.0,60.0,,,,
Zakum Construction Co.,51094385,PO Box 3611,Abu Dhabi,971-02 6775094,,33299999.0,60.0,,,,
Elcome International L.L.C.,42386817,PO Box 53460,Abu Dhabi,971-02 5511136,http://elcome.com,17400000.0,60.0,,,,
Abu Dhabi National Takaful Co. PSC,51373166,Al Bateen,Abu Dhabi,971-2-4107700,http://www.takaful.ae,191054900.0,58.0,,,,
Ec Harris International Ltd.,120029763,Po Box 93540,Abu Dhabi,,http://www.echarris.com,,57.0,,,,
Prismo Gulf Company Est,42386046,PO Box 367,Abu Dhabi,971-02 5555939,http://www.prismogulf.ae,35099998.0,55.0,,,,
VAM Drilling Protools Oil Equipment Manufacturing LLC,124704598,Mussafah Industrial Area Plant,Abu Dhabi,971-2-551-3234,,,55.0,,,,
Global Intelligent Systems Establishment,123227552,Po Box 32661,Abu Dhabi,26277808,,8000000.0,55.0,,,,
Sodap Emirates (Uae),92461411,Po Box 71779,Abu Dhabi,26222301,http://www.sodamco.com,,55.0,,,,
Al Manara International Jewellery,125195496,PO Box 114441,Abu Dhabi,971-02 6272222,http://www.amij.com,,51.0,,,,
Vincotte International Middle East,92460657,P.O. Box 4788,Abu Dhabi,5510041,http://www.vincotte.ae,,51.0,,,,
Lucherini Association Ing Arch Consulting,92461122,P.O. Box 6905,Abu Dhabi,24458310,http://www.arch-lucherini.it,,51.0,,,,
Chemetall Plc,92461569,P.O. Box 43539,Abu Dhabi,26273359,http://www.chemetall.com,,51.0,,,,
Flowserve Al Mansoori Services,92461041,Po Box 26443,Abu Dhabi,5542464,http://www.flowserve.com,,51.0,,,,
Pb Power Ltd,92461157,P.O. Box 47445,Abu Dhabi,26786060,http://www.pbworld.com,,51.0,,,,
Tuv Akademie Middle East,92461312,Near Al Badr Mosque Street No. 7 Opposite Blue Marine Building A,Abu Dhabi,24478500,http://www.tuv-nord.com,,51.0,,,,
Intergraph Middle East Llc (Imel),92683078,P.O. Box 45805,Abu Dhabi,26273800,http://www.intergraph.com,,51.0,,,,
Kingsfield Burns Uae Llc,120010956,P.O. Box 44908,Abu Dhabi,26729762,,,51.0,,,,
Embassy Of The Islamic Republic Of Afghanistan,92460903,P.O. Box 5687,Abu Dhabi,26655560,http://www.afghanembassy-uae.eedevelopment.com,,51.0,,,,
Sfc Group,92461258,Lulu Centre Building 3Rd Floor Room 301 Al Salam Street,Abu Dhabi,26776999,http://www.sfcgroup.com,,51.0,,,,
Simmons And Simmons,92461406,P.O. Box 5931,Abu Dhabi,26275568,http://www.simmons-simmons.com,,51.0,,,,
Alliance Francaise D Abu Dhabi,92460679,P.O. Box 2646,Abu Dhabi,26666232,http://www.af-aboudabi.net,,51.0,,,,
Italian Embassy,92460856,P.O. Box 46752,Abu Dhabi,24435622,http://www.ambabudhabi.esteri.it,,51.0,,,,
Embassy Of Brazil,92460850,P.O. Box 3027,Abu Dhabi,26320606,http://www.brazilpradenet.com,,51.0,,,,
Khalidia Palace Hotel,120011096,Po Box 4010,Abu Dhabi,6662470,http://www.rotana.com,,51.0,,,,
Petrogas Services Establishment,92507458,Saifulla Mohammed Khoory Bldg P.O. Box 261457,Abu Dhabi,26326135,http://www.petrogas.ae,,50.0,,,,
Allied Investment Partners P J S C,120029906,Po Box 109248,Abu Dhabi,26266776,,,50.0,,,,
Middle East Trading & Contracting Company (Metco) W L L,42385989,Po Box 851,Abu Dhabi,26263900,,9000000.0,50.0,,,,
Star Petroleum Technical Services - L L C,122940132,Po Box 55028,Abu Dhabi,26769033,,3651700.0,50.0,,,,
Aabar Investment PJSC,42390800,,Abu Dhabi,971-26264466,http://www.aabar.com,564900020.0,50.0,,,,
Penspen International Ltd.,42386041,PO Box 46562,Abu Dhabi,971-02 6792526,http://www.penspen.com,27799999.0,50.0,,,,
Industrial Gas Plants,42385931,PO Box 4273,Abu Dhabi,971-02 5554040,,112500000.0,50.0,,,,
Abu Dhabi Marine Equipment & Industrial Supplies,123730652,Po Box 4164,Abu Dhabi,6732300,,24000000.0,50.0,,,,
Abu Dhabi Shipping Agency L.L.C.,42385745,PO Box 46103,Abu Dhabi,971-2 6449100,http://www.adsa.ae,128000000.0,50.0,,,,
STALCO Abu Dhabi L.L.C.,42386084,PO Box 3768,Abu Dhabi,971-02 6731318,http://www.stalco.ae,127700000.0,50.0,,,,
"Hill International Inc.- Abu Dhabi, U.A.E.",50091039,Ste 1601 16th Fl D O Buttti Al Otaiba Bldg Sheikh Khalifa St,Abu Dhabi,971-43372145,http://www.hillintl.com,,50.0,,,,
Fujitsu Services Limited,42385936,PO Box 7237,Abu Dhabi,971-2-6335200,http://www.fujitsu.com,5300000.2,50.0,,,,
Eldiar Furniture Manufacturing and Decoration L.L.C.,100971500,Mussafah Industrial Area,Abu Dhabi,971-2-5555656,http://www.eldiarfurniture.com,227300000.0,50.0,,,,
Demar Property Management,120010700,P.O. Box 43636,Abu Dhabi,26222690,http://www.demaruae.com,,50.0,,,,
Lycee Louis Massignon,92461169,P.O. Box 2314,Abu Dhabi,24448085,http://www.llm.ae,,50.0,,,,
Abu Dhabi Engineering & Trading Group Of Establishments - Tawam Commercial Est,122985883,Po Box 6767,Abu Dhabi,26730333,,10000000.0,50.0,,,,
Dresser-Rand Arabia,126538766,Industrial Estate Plot 131 Sector M42,Abu Dhabi,971-25014200,,,50.0,,,,
Abu Dhabi Water & Electricity Company,92461557,Al Falah Street,Abu Dhabi,97126943333,http://www.adwec.ae,,49.0,,,,
Kvaerner Engineering A S,96408627,Po Box 47825,Abu Dhabi,26740400,http://www.akersolutions.com,,45.0,,,,
Steel Construction Engineering Company L.L.C.,48609186,PO Box 3922,Abu Dhabi,971-02 6346334,,29799999.0,45.0,,,,
Autochim Systems - Abu Dhabi - (Asad) L L C,96930352,Po Box 26166,Abu Dhabi,26265774,http://www.autochimsystems.com,,45.0,,,,
Alnasr Technical Trading Agencies,42385766,Abu Dhabi,Abu Dhabi,971-2-5512900,http://www.alnasr-uae.com/,119900000.0,45.0,,,,
Habib Exchange Co.Llc.,133363761,2370,Abu Dhabi,26272316,,53657001.0,45.0,,,,
Y&R Abu Dhabi,125631520,Corniche Road Arab Monetary Fund Building 3rd Floor,Abu Dhabi,971-2-621-5050,http://www.yr.com,,45.0,,,,
Conseco International L T D,120029885,Po Box 3068,Abu Dhabi,26262062,http://www.conseco-international.com,,43.0,,,,
National Centre For Management And Training,120029870,P.O. Box 7796,Abu Dhabi,26721777,http://www.ncmt-uae.com,,41.0,,,,
Mc Connel Dowell Abu Dhabi - L L C,103636931,Po Box 46512,Abu Dhabi,26737339,http://www.mcconnelldowell.com.au,,41.0,,,,
Crown Printing Centre,120011579,P.O. Box 46415,Abu Dhabi,26725747,,,40.0,,,,
Telefon AB LM Ericsson,121414388,Technical Office UAE Office S 404 Al Ferdous Tower,Abu Dhabi,971-26968600,,,40.0,,,,
SNEF Abu Dhabi,42386078,"PO Box 46388, Al Qubaisi Bldg., Hamdan St.",Abu Dhabi,971-02 62727119,http://www.snef.fr,11600000.0,40.0,,,,
Precision Drilling Corporation - Middle East,121662788,Bin Arar Bld Alnajda St,Abu Dhabi,971-26747333,http://www.precisiondrilling.com,,40.0,,,,
Llj Property,120011215,Po Box 107729,Dubai,22255555,http://www.lljproperty.com,,40.0,,,,
Det Norske Veritas,120010704,Po Box 3149,Abu Dhabi,26436439,http://www.dnv.com,,40.0,,,,
European Exhibition For Modern Furniture Ltd,42385877,Po Box 4127,Abu Dhabi,26772871,http://www.europeanexhibition.co.ae,4383500.1,40.0,,,,
Yara Decor,48609238,PO Box 7349,Abu Dhabi,971-02 6266610,http://www.adcecogroup.com,23600000.0,40.0,,,,
Costain Abu Dhabi Company,42385842,PO Box 3069,Abu Dhabi,971-25553920,http://www.costain-abudhabi.ae,,40.0,,,,
Rimal Engineering Products,42386053,,Abu Dhabi,971-26332267,http://www.rimal.ae,115800000.0,40.0,,,,
Falcor Engineering & Contracting Services - L L C,92460892,Po Box 48576,Abu Dhabi,26342555,http://www.falcor-eng.com,,40.0,,,,
Tolico Trading & Oilfield Services L L C,120010604,Po Box 7510,Abu Dhabi,6770111,http://www.tolicotrading.com,,40.0,,,,
Energo Consult L.L.C.,121402657,Hamadan Street Al Qubaissi Building,Abu Dhabi,971-26763554,,,40.0,,,,
National Industrial Company L.L.C.,42386016,"PO Box 706, Bin Hamuda Bldg., Opposite Electra Rd.",Abu Dhabi,971-02 6721000,,30799999.0,35.0,,,,
Al Dhabi Brokerage Services LLC,123849977,Al Salam St Abu Dhabi Commercial Bank Building 5th Floor,Abu Dhabi,971-26962330,http://www.adbtrade.com,,35.0,,,,
PLS Pipeline Services Ltd.,42386043,PO Box 4500,Abu Dhabi,971-02 5554513,http://www.piggingassnppsa.com,13000000.0,35.0,,,,
Pearl Emirates Auto and Machinery Company L.L.C.,42385809,PO Box 46918,Abu Dhabi,971-02 6411446,http://www.peamco.ae,4000000.0,35.0,,,,
Veolia Environmental Services Qatar L.L.C.,125518340,,Abu Dhabi,971-2-55-11-557,,,35.0,,,,
Fichtner Consulting Engineers - Abu Dhabi,92460945,Po Box 3657,Abu Dhabi,24453066,http://www.fichtner.de,,35.0,,,,
Syscoms Information Technology,42386091,"Syscoms College Building,Near Central Market, Opp. Abu Dhabi Chamberof Commerce, Opp. Abu Dhabi Chamber of Commerce",Abu Dhabi,971-02 6355554,http://www.syscomscollege.com,18299999.0,35.0,,,,
Baynunah Well Pipes Factory Limited,122146057,Po Box 3353,Abu Dhabi,26794242,,20000000.0,33.0,,,,
New India Assurance,92507454,Abu Bakr Al-Sediq Road Building Number 21,Abu Dhabi,26440428,http://www.newindia.co.in,,31.0,,,,
Pasteur Central Laboratories Ltd,106238183,P.O. Box 43300,Abu Dhabi,,http://www.pcl-uae.com,,31.0,,,,
Eastern Bechtel Co Ltd,92460842,P.O. Box 2661,Abu Dhabi,26318999,http://www.bechtel.com,,31.0,,,,
Viola Communications Llc,120011375,Abu Dhabi Mall West Tower  6Th Floor,Abu Dhabi,26449444,http://www.viola.ae,,31.0,,,,
Jgc Corporation,92461077,P.O. Box 28543,Abu Dhabi,,http://www.jgc.co.jp,,31.0,,,,
Fluor Mideast Limited,92460965,Al Obaidly Tower 5 1St 2Nd  14Th And 15Th Floor Al Istiqlal Stre,Abu Dhabi,26172700,http://www.fluor.com,,31.0,,,,
Trowers & Hamlins,92461332,P.O. Box 45628,Abu Dhabi,26267274,http://www.trowers.com,,31.0,,,,
Guardian Insurance Brokers,120011458,P.O. Box 51012,Abu Dhabi,26777116,http://www.gib-uae.com,,31.0,,,,
Amideast,92460686,P.O. Box 5464,Abu Dhabi,,http://www.amideast.org,,31.0,,,,
Dassault Aviation,120010316,P.O. Box 70356,Abu Dhabi,26268388,http://www.dassault-aviation.com,,31.0,,,,
Technical Insurance Services,120012213,P.O. Box 45610,Abu Dhabi,24483444,http://www.technicalinsuranceuae.com,,31.0,,,,
Daly Fluid Technologies Llc,120010381,Mena Abu Dhabi Warehouses,Abu Dhabi,26736349,http://www.dalyft.com,,31.0,,,,
Turner Construction International Llc,92461350,Etisalat Street Old Jashanmal Building  Al Fandal Mazrooey,Abu Dhabi,26500888,http://www.turnerconstruction.com,,31.0,,,,
Waagner-Biro Bin Butti Engineering L.L.C.,120010347,Hamdan Street,Abu Dhabi,971-2-674-16-36,http://www.waagner-biro.com,,31.0,,,,
Thales,92461338,P.O. Box 47186,Abu Dhabi,26761418,http://www.thalesgroup.com,,31.0,,,,
Mothercare Ltd.,92461186,P.O. Box 26754,Abu Dhabi,26219700,http://www.mothercare.com,,31.0,,,,
Ginorse Uae Wll,92461485,P.O. Box 4492,Abu Dhabi,26727681,http://www.ginorse.com,,31.0,,,,
Safar Travel Services,92028288,Liwa Street,Abu Dhabi,971-26225225,http://www.safar.ae,49000000.0,30.0,,,,
International Development Company,42385937,PO Box 2621,Abu Dhabi,97126222444,http://www.idcuae.com,217800000.0,30.0,,,,
Hanscomb Consultants Inc,92461063,Po Box 41124,Abu Dhabi,26262461,http://www.hanscomb.com,,30.0,,,,
Driver Project Services (UAE) LLC,121399048,Ofc 105 Al Mansoori Plz Sheikh Hamdan St,Abu Dhabi,971-26780466,,,30.0,,,,
Al Hilal Takaful PSC,123762059,PO Box 111644,Abu Dhabi,971-02 4994400,http://www.alhilalbank.ae,225600010.0,30.0,,,,
Northcroft Middle East - Abu Dhabi,92507455,Po Box 4670,Abu Dhabi,26446237,http://www.northcroftmiddleeast.com,,30.0,,,,
Daff Trading and Oil Services,42385847,PO Box 7399,Abu Dhabi,971-02 6778000,http://www.daffgroup.ae,24100000.0,30.0,,,,
ESCAN PJSC,102157221,PO Box 93888,Abu Dhabi,971-04 4474202,http://www.escan.ae,52599998.0,30.0,,,,
United Technical Services,42386111,PO Box 277,Abu Dhabi,971-26774400,http://www.uts.ae,60000000.0,30.0,,,,
Gray Mackenzie & Partners - Abu Dhabi - Limited - Wll,121882480,Po Box 247,Abu Dhabi,24462424,,70000000.0,30.0,,,,
Nexans France - Abu Dhabi,123249949,PO Box 47889,Abu Dhabi,971-26328724,,,28.0,,,,
NCR,42386023,PO Box 350,Abu Dhabi,971-02 6333700,,36000000.0,28.0,,,,
Al Moherbie Thermoplast L.L.C.,42385993,PO Box 46767,Abu Dhabi,971-02 6448936,,,28.0,,,,
Atiq Al Dhaheri & Company - L L C,122896049,Po Box 44719,Abu Dhabi,25540676,http://www.aadtra.com,32000000.0,28.0,,,,
Habib Exchange Co.Llc.,120010933,Po Box 2370,Abu Dhabi,26272656,http://www.habibexchange.com,,28.0,,,,
Bovis Lend Lease International Limited,50407619,Po Box 47029,Abu Dhabi,26275677,http://www.bovislendlease.com,,26.0,,,,
Union Gulf Services L.L.C.,92460975,Po Box 46800,Abu Dhabi,26282121,http://www.uniongulf.ae,,26.0,,,,
Mohammed Bin Ghalib Energy Enterprises,42386708,PO Box 2177,Abu Dhabi,971-02 6263132,,13900000.0,25.0,,,,
Abu Dhabi National Leasing LLC,125228728,One NBAD Tower 17th Floor Sheikh Khalifa Street,Abu Dhabi,971-26112000,http://www.adnl.ae,,25.0,,,,
Spaceage Electrical Company,92461376,P.O. Box 43693,Abu Dhabi,25500150,http://www.spaceageelectrical.com,,25.0,,,,
Complete Engeneering - L L C,122044236,Po Box 38068,Abu Dhabi,26774323,,500000.0,25.0,,,,
Emirates Safety Services Ltd.,42385869,"PO Box 6322, Mussafah",Abu Dhabi,971-2 5555725,http://www.emisafe.ae,6300000.2,25.0,,,,
Dutco Tenant Llc,93130925,Po Box 2534,Abu Dhabi,26348495,http://www.dutcotennant.com,,25.0,,,,
Emirates National Shipping Services - L L C,123249970,Po Box 30180,Abu Dhabi,26338100,,10000000.0,25.0,,,,
KPMG Abu Dhabi,42385957,PO Box 7613,Abu Dhabi,971-02 6343318,http://www.kpmg.com,118500000.0,25.0,,,,
Power Transmission (Gulf) Ltd.,42386044,PO Box 376,Abu Dhabi,971-02 6767628,,13900000.0,25.0,,,,
NMC Pharmacies,124754329,Electro St Airport Rd,Abu Dhabi,971-26332255,,,25.0,,,,
Cimac Electrical and Control Systems LLC,125643301,2nd Floor Sahara Residence Khalifa Street,Abu Dhabi,971-2-6263222,,,25.0,,,,
BP Exploration Operating Co Ltd,42385815,PO Box 46600,Abu Dhabi,971-2-493-5555,http://www.bp.com/contacts.do?categoryId=436&contentId=2000550,636299990.0,25.0,,,,
Marina Insurance Brokers,120010364,P.O. Box 42032,Abu Dhabi,26311130,http://www.marinaib.com,,25.0,,,,
Al Fuad Trading Establishment,123167892,Po Box 46395,Abu Dhabi,26774436,http://www.alfuad.com,45000000.0,25.0,,,,
Serck Services Co. (LLC),92461283,,Abu Dhabi,971-2-5553108,http://www.serckgulf.com,,25.0,,,,
National Bank of Oman SAOG,42386009,"PO Box 3822, Najda St.",Abu Dhabi,971-02 6348111,http://www.nbo.co.om,1168200000.0,25.0,,,,
Abu Dhabi National Exhibitions Co.,42385729,PO Box 5546,Abu Dhabi,971-02 4446900,http://www.adnec.ae,24100000.0,22.0,,,,
Grafik International Llc,96930356,Po Box 51527,Abu Dhabi,6321000,http://www.giuae.ae,,21.0,,,,
French Business Group,92460986,P.O. Box 73390,Abu Dhabi,26741137,http://www.fbgabudhabi.com,,21.0,,,,
Baynunah Hilton Tower,92461028,Corniche Road,Abu Dhabi,26327777,http://www.hilton.com,,21.0,,,,
Club,120011577,P.O. Box 658,Abu Dhabi,26731111,http://www.the-club.com,,21.0,,,,
Alliot Hadi Shahid,92460680,P.O. Box 46198,Abu Dhabi,26222300,http://www.alliottuae.com,,20.0,,,,
Syscoms College,48284258,Airport Rd.,Abu Dhabi,971-02 6355554,http://www.syscomscollege.com,10500000.0,20.0,,,,
FURNICON,96930428,PO Box 51528,Abu Dhabi,971-02 6352570,http://www.furnicon.ae,16299999.0,20.0,,,,
Data Capture Systems Company W.L.L.,48609235,Po Box 47663,Abu Dhabi,26450110,http://www.dcsme.ae,10000000.0,20.0,,,,
Grafik International L.L.C.,92502007,PO Box 4118,Abu Dhabi,971-02 6321000,http://www.giuae.ae,15100000.0,20.0,,,,
"Falcon Tours, Travel and Cargo",50835918,"PO Box 43832, Back of Al Muhairy Shopping Ctr., Khalidia",Abu Dhabi,971-02 6348000,http://www.alhamed.com/fttcinfo.htm,62500000.0,20.0,,,,
Gibca Information Technology - L L C - Gibtek,92461491,P.O. Box 44457,Abu Dhabi,26277100,http://www.gibca.com,,20.0,,,,
Belmour Trading Agencies Establishment,122044255,Po Box 27406,Abu Dhabi,26668880,,15000000.0,20.0,,,,
ITQAN-Al Bawardi Computers,42385805,PO Box 51526,Abu Dhab,971-02 6767666,http://www.itqan.ae,8500000.0,20.0,,,,
Al Benaa Real Estate Investment Co PJSC,111192741,PO Box 107781,Abu Dhabi,971-2-6722285,http://albenaauae.com,55000000.0,20.0,,,,
Sheraton Khalidiya Hotel,92461240,Zayed The First Street Khalidiya Area P.O. Box 6727,Abu Dhabi,26666220,http://www.sheraton.com,,20.0,,,,
Al Hutaib Electromechanical Company- W L L,122895655,Po Box P.O.Box 36170,Abu Dhabi,26211740,,3500000.0,20.0,,,,
Ojaco Engineering Co.,43871861,PO Box 46372,Abu Dhabi,971-2 6272340,http://www.adcecogroup.com,19100000.0,20.0,,,,
National Bank of Bahrain BSC,50779895,PO Box 46080,Abu Dhabi,971-02 6335288,http://www.nbbonline.com,887799990.0,19.0,,,,
Shell Abu Dhabi B.V.,42386071,,Abu Dhabi,971-2-6333620,http://www.shell.com/home/content/are/footer/contact_us/,51700001.0,18.0,,,,
Middle East Container Repair Company Limited - Abu Dhabi,42385988,PO Box 4501,Abu Dhabi,971-02 6732434,http://www.mecrc.ae,8899999.6,18.0,,,,
Fortune Promoseven,137067693,2454 Pink Building 2nd Floor Eastern Ring Road,Abu Dhabi,971-2-449-4405,http://www.promoseven.com,,18.0,,,,
Leaders International Technology Co.,42385961,PO Box 45125,Abu Dhabi,971-02 6760111,,8500000.0,18.0,,,,
BICC Al Jallaf WLL,42385807,PO Box 46707,Abu Dhabi,971-02 6222320,,11500000.0,18.0,,,,
Tecsol Electrical Installation & Maintenance,122044352,Po Box P.O.Box 110876,Abu Dhabi,26718907,,2000000.0,17.0,,,,
Mideast Data Systems,122882372,Po Box 7899,Abu Dhabi,26276354,,1182640000.0,17.0,,,,
Tata Communications Middle East And North Africa,92461315,City Center Building Block A  Office 204 2Nd Floor Hamdan Street,Abu Dhabi,26266223,http://www.tatacommunications.com,,16.0,,,,
Al Muhairy General Trading Company L.L.C.,120012179,Po Box 26288,Abu Dhabi,26772040,http://www.almuhairytrading.com,,15.0,,,,
Al Areef Computer Institute,120010429,P.O. Box 37628,Abu Dhabi,26268570,http://www.areef.ae,,15.0,,,,
I H I Emirates Company Limited,122982047,Po Box 2374,Abu Dhabi,26789400,,12000000.0,15.0,,,,
Sembawang UAE Pte Ltd.,121405205,501-504 Al Gaith Tower Hamdan Street,Abu Dhabi,971-48815165,http://www.sembawangenc.com,,15.0,,,,
United Arab Shipping Company,42386108,Tourist Club Area Omar Bin Zayd Bldg 3rd Foor 304,Abu Dhabi,971-26332111,http://www.uasc.com,,15.0,,,,
Gulf Commercial Agency,42385906,PO Box 46962,Abu Dhabi,971-02 5553456,,14300000.0,15.0,,,,
"Bainuna Mechanical, Electrical Equipment & Oil-Field Services",122048005,Po Box 642,Abu Dhabi,26393303,,15000000.0,15.0,,,,
Nahla Medical Supplies,106238176,Po Box 29348,Abu Dhabi,26764975,http://www.nahlamed.ae,120000000.0,15.0,,,,
Al Badri Traders Company L.L.C.,42385788,PO Box 3476,Abu Dhabi,971-02 6789956,http://www.albadri.org,7300000.2,15.0,,,,
Icapital,121851714,Po Box 37148,Abu Dhabi,26581050,http://www.icapital.ae,35000000.0,15.0,,,,
I H I Uae Company Limited,92461038,Po Box 2374,Abu Dhabi,26789400,http://www.ihiuae.com,,14.0,,,,
Salem Ibrahim Al Saman,48609265,PO Box 271,Abu Dhabi,971-02 6268888,,8500000.0,14.0,,,,
Mace International Limited,92461168,Po Box 37501,Abu Dhabi,,http://www.macegroup.com,,13.0,,,,
Gulf Net Security Systems Co. Llc,123278625,Po Box 28607,Abu Dhabi,26728847,,32599998.0,13.0,,,,
KNDT UAE Techno Inspection LLC,121700819,M-36 Plot 58 Warehouse 3 Mussafah,Abu Dhabi,971-2-553-5825,,,13.0,,,,
Waha Maritime,111192810,"NA02, NA02,",Abu Dhabi,971-2-6677343,http://www.wahacapital.ae/,,13.0,,,,
Al Hamed ITC,42385940,PO Box 592,Abu Dhabi,971-02 6674777,http://www.alhamed.com/itcinfo.htm,6500000.0,12.0,,,,
Accenture Middle East B V - Abu Dhabi,92461522,Po Box 29002,Abu Dhabi,26429644,http://www.accenture.com,,12.0,,,,
Abu Dhabi Commercial Corp.,42385721,PO Box 4214,Abu Dhabi,971-02 6722828,,14500000.0,12.0,,,,
Ranya Trading WLL,42386049,PO Box 602,Abu Dhabi,971-02 6773063,,6699999.8,12.0,,,,
"Mitsui & Co., Middle East Ltd.",50664444,Ste 1002 10th Fl Al Masaood Tower Sh Hamdan St,Abu Dhabi,971-26322119,http://www.mitsui.com,,12.0,,,,
Crescent Oilfield Supplies Est,42385845,PO Box 7355,Abu Dhabi,971-02 5547800,http://www.alnasr-uae.com,11900000.0,12.0,,,,
Bae Systems,120010705,Po Box 4049,Abu Dhabi,26338831,http://www.baesystems.com,,12.0,,,,
Technical Scientific Enterprises Company (Techni) - L L C,92461514,Po Box 5100,Abu Dhabi,26727888,http://www.techni-uae.com,,10.0,,,,
Van Leeuwen Pipe & Tube (Middle East) Ltd.,50087272,Al Karmaneh St Internatinal Tower Ste 2105,Abu Dhabi,971-26271840,http://www.vanleeuwen.ae,,10.0,,,,
Sainrapt Contracting Co L.L.C.,42386065,PO Box 661,Abu Dhabi,971-2-676-4007,,183200000.0,10.0,,,,
Sultan International Establishment,92461151,Po Box 3486,Abu Dhabi,26224411,,,10.0,,,,
Amalgamated National Diversified Offshore Company Ltd.,100971444,"PO Box 7333, Al Nasr St., Falcon Twr.",Abu Dhabi,971-02 6326677,http://www.anholdings.com,5400000.1,10.0,,,,
Qatar Insurance Company - Abu Dhabi,98460544,,Abu Dhabi,971-26769466,http://www.qatarinsurance.com,,10.0,,,,
Sharjah Islamic Bank PJSC - Abu Dhabi,42386011,PO Box 43153,Abu Dhabi,971-02 6743153,http://www.sib.ae,467100010.0,10.0,,,,
ADCECO Group,48609229,"PO Box 47029, ADCECO Building, Port Zayed, Free Zone",Abu Dhabi,971-2 6732111,http://www.adcecogroup.com,5400000.1,10.0,,,,
Habib Trading Company - W L L,120011384,Po Box 30929,Abu Dhabi,26315001,http://www.habibtrading.com,,10.0,,,,
Mansoori Industrial Supply,42385968,PO Box 287,Abu Dhabi,971-02 6339795,http://www.mansoori-industrial.com,8100000.4,10.0,,,,
Oracle Systems Limtied,101788426,Arab Monitary Fund Bldg. P.O. Box 30339,Abu Dhabi,26323216,http://www.oracle.com,,10.0,,,,
GIBCA Abu Dhabi,42385898,"PO Box 2570, Head Office, Gibca Bldg.",Abu Dhabi,971-02 6260222,http://www.gibca.com,2900000.1,10.0,,,,
Agricultural Engineering Company L.L.C.,48584136,PO Box 16015,Abu Dhabi,971-03 7217912,,,10.0,,,,
Al Mazroui Engineering Co.,50664555,PO Box 97,Abu Dhabi,971-02 6724422,http://www.mengineering.info,5400000.1,10.0,,,,
Abu Dhabi Equipment Co.,42385723,PO Box 4303,Abu Dhabi,971-02 5554079,http://www.mobh.ae,10900000.0,9.0,,,,
Samer Engineering Consultancy Group,42386067,"PO Box 2764, Emirates Dates Bldg., Sheikh Khalifa St.",Abu Dhabi,971-02 6744359,http://www.samergroup.com,3200000.0,9.0,,,,
Liechtensteinische Landes Bank (Switzerland Ltd - Abu Dhabi,120010420,Po Box 48230,Abu Dhabi,26655666,http://www.llb.ae,,9.0,,,,
Aabharan Jewellery LLC,121418083,UAE Exchange Centre Building Hamdan Street,Abu Dhabi,971-26339433,http://www.nmc.ae,,9.0,,,,
Al-Salam Express Cargo,120012182,P.O. Box 7201,Abu Dhabi,26260510,http://www.alsalamcargo.com,,8.0,,,,
Asi Trading - Middle East - Llc,123249132,Po Box 4108,Abu Dhabi,26447500,,3000000.0,8.0,,,,
The Commercial Counsellor's Office At The Austrian Embassy,92460906,"Al Hazna Tower, 7Th Flr., 702",Abu Dhabi,26766633,http://www.austrianembassy.ae,,8.0,,,,
ESAB Middle East LLC,124754141,,Abu Dhabi,971-25547831,http://www.esab.ae,,8.0,,,,
Issam Bookshop - L L C,121881518,Po Box 2295,Abu Dhabi,26343557,,1000000.0,8.0,,,,
Austroconsult,92461481,P.O. Box 41306,Abu Dhabi,26763663,http://www.austroconsult.at,,8.0,,,,
Favelle Favco Machinery & Equipment L.L.C.,92461488,Level 01 Yateem Optician Building Khalifa Street,Abu Dhabi,971-26277948,http://www.favellefavco.ae,,8.0,,,,
Advanced Systems International L L C,122781970,Po Box 51414,Abu Dhabi,56275750,,821900.01,8.0,,,,
Al Sahwa Trading Co. LLC,124718143,Khaleefa St,Abu Dhabi,971-26273270,http://www.al-hassan.com/contactus.html,,8.0,,,,
"Taisei Saudi Arabia Co., Ltd.",121662652,Office 1603 16th Floor Sultan Tower Najda Street,Abu Dhabi,971-26341005,http://www.taisei.com,,8.0,,,,
Khansaheb Sykes Co.,42385954,PO Box 4056,Abu Dhabi,971-02 5554131,http://www.khansahebsykes.com,16700001.0,7.0,,,,
Bin Maeem Hospital Supplies L L C,123098013,Po Box 567,Abu Dhabi,4465659,,5000000.0,7.0,,,,
Stone and Webster International Corp.,42386087,PO Box 4722,Abu Dhabi,971-02 6728833,http://www.sw-international.co.ae,3800000.0,7.0,,,,
Prolight - L L C,122044223,Po Box 54230,Abu Dhabi,26229980,,4699999.8,7.0,,,,
Janana Trading Co.,42385946,PO Box 2502,Abu Dhabi,971-02 6784783,,94599998.0,7.0,,,,
Abdul Aziz Bin Rubaya and Sons L.L.C.,105436129,PO Box 107,Abu Dhabi,971-02 6272000,,4500000.0,6.0,,,,
Credit Suisse Representative Office,139457077,PO Box 47060,Abu Dhabi,971-02 6275048,http://www.credit-suisse.com,280399990.0,6.0,,,,
Big Red Tubular Industries - L L C,120011106,Po Box 4030,Abu Dhabi,25501871,http://www.bigredtubular.com,,6.0,,,,
G.I.T Fze,122044453,Po Box 16111,Ras Al Khaymah,26289255,,10000000.0,6.0,,,,
"Hitachi Plant Technologies, Ltd.",124442422,4th Floor Al Fahim Center 10th & 17th Intersection,Abu Dhabi,971-2-555-0856,,,6.0,,,,
Al Fandi Mazroui Travel and Tourism,42385982,PO Box 2905,Abu Dhabi,971-02 6311630,http://www.alfandigroup.com,8600000.4,6.0,,,,
Abu Dhabi Industrial Supplies Establishment,120029808,Po Box 27679,Abu Dhabi,26340403,http://www.adis-uae.com,,6.0,,,,
Pioneers World Oil & Gas Services - L L C,122940118,Po Box 94375,Abu Dhabi,26710231,,10000000.0,5.0,,,,
Oasis Oilfield Services and Supplies,42386029,PO Box 7968,Abu Dhabi,971-02 6211885,http://www.oasisoilfield.ae,4900000.1,5.0,,,,
Berns Brett Masaood Insurance  L.L.C,120010775,Po Box 111566,Abu Dhabi,26761939,http://www.bernsbrettmasaood.com,,5.0,,,,
Gulf Space Petroleum Equipment,123229971,Po Box 43316,Abu Dhabi,26266525,,57119701.0,5.0,,,,
DECON Middle East,42386770,PO Box 11314,Abu Dhabi,971-02 6817008,http://www.decon-mideast.com,3300000.0,5.0,,,,
Giffin Establishment,122146042,Po Box 955,Abu Dhabi,26730555,,10000000.0,5.0,,,,
Petrotech Trading Company Fze,121849433,Po Box 13288,Abu Dhabi,25526864,,5000000.0,5.0,,,,
RAK Free Zone Promotion Centre,121419276,Abu Dhabi Mall West Tower First Floor,Abu Dhabi,971-26994888,http://www.rakftz.com/en/forms/contactus,,5.0,,,,
Sadiq Brothers,42386061,"PO Box 169, Najda Rd.",Abu Dhabi,971-02 6772542,http://www.sadiqbrothers.co.ae,4800000.2,5.0,,,,
Dana Establishment - Danco Trading,92460952,Po Box 4880,Abu Dhabi,26393943,,,5.0,,,,
Parker Hannifin United Arab Emirates,121412641,,Abu Dhabi,971-26788587,,,4.0,,,,
"Japan Oil, Gas & Metal National Corporation",107528367,Al Masaood Bldg P.O. Box 6270,Abu Dhabi,26330366,http://www.jogmec.go.jp,,4.0,,,,
The Bank of Tokyo-Mitsubishi UFJ Limited - Abu Dhabi,42385797,"PO Box 2174, 17th Fl., Office 17A, One NBAD Twr., Sheikh Khalifa St.",Abu Dhabi,971-02 6135900,http://www.bk.mufg.jp,186899990.0,4.0,,,,
Empower Engineering Resources - Co L L C,122044407,Po Box 61928,Abu Dhabi,25599003,,3200000.0,4.0,,,,
Metroyet Metropolitan Veterinary Marketing - L L C,122189626,Po Box 8047,Abu Dhabi,26449544,,2200000.0,4.0,,,,
Velosi Quality Management International L.L.C.,121613030,No 201 & 205 Block B Abu Dhabi Bus Hub ICAD-1 Mussafah,Abu Dhabi,971-25502600,,,4.0,,,,
Leads  Textiles,121851628,Po Box 53106 / 55371,Abu Dhabi,25522477,,5000000.0,3.0,,,,
Maersk Oil Middle East A/S,124729438,Suite 1220,Abu Dhabi,971-2-596-4896,http://www.maerskoil.com/AboutUs/Contacts/Pages/Contacts.aspx,,3.0,,,,
Asian Petroleum Services Llc,122470713,Po Box 94364,Abu Dhabi,26728003,,2599999.9,3.0,,,,
Kharafi National Co .L L C,120029820,Po Box 26831,Abu Dhabi,25130513,http://www.kharafinational.com,,3.0,,,,
ECU Line Abu Dhabi LLC,125630803,Ahmed Bin Hmouda Bldg Mezzanine Fl Al Naser St,Abu Dhabi,971-26339597,http://www.eculine.net,,3.0,,,,
Broadway Malyan Limited - Abu Dhabi,120011509,Po Box 53670,Abu Dhabi,24999100,http://www.broadwaymalyan.com,,3.0,,,,
Mohamed Al Otaiba Group Est,100971505,PO Box 3348,Abu Dhabi,971-02 6221800,http://www.alotaiba-group.com,7800000.2,3.0,,,,
Al Rubaya Group,42386057,PO Box 107,Abu Dhabi,971-02 6272000,,1900000.0,3.0,,,,
Malcolm Pirnie Middle East FZC,105438946,Abu Dhabi,Abu Dhabi,971-558841216,http://www.arcadisglobal.com,,3.0,,,,
Wintershall Middle East GmbH-Abu Dhabi,125631567,,Abu Dhabi,971-26810517,http://www.wintershall.com,,2.0,,,,
Linde Engineering Middle East LLC,92461135,,Abu Dhabi,971-24479313,http://www.linde.com,,2.0,,,,
Architects International - L L C,120029875,Po Box 62922,Abu Dhabi,26666070,http://www.prp-ai.com,,2.0,,,,
Al Mumtaz Industrial Equipments,123228894,Po Box 108778,Abu Dhabi,25512755,,4500000.0,1.0,,,,
Al Hassan Engineering Co. Abu Dhabi LLC,121663888,,Abu Dhabi,971-25513858,,,,,,,
Mercantile Information & Telecommunication Technology Co. LLC,122044248,004 Office Floor Sheikha Ayesha Building Salam Street Tourist Club Are,Abu Dhabi,971-2-6458909,http://www.mittco.ae,,,,,,
Technical Parts Establishment,42386096,,Abu Dhabi,971-2-6732200,http://www.technicalparts.com,,,,,,
GHD Global Pty Ltd,111088097,"3rd Floor Guardian Tower,",Abu Dhabi,971-2-6968700,http://www.ghd.com,,,,,,
Norr Group Consultants International Limited,92461204,Shk.Hamdan Bin Mohammed Street,Abu Dhabi,26763360,http://www.norrlimited.com,,,,,,
Future Decor L.L.C.,50835920,PO Box 105832,Abu Dhabi,971-02 6424911,http://www.futuredecor.ae,,,,,,
United Alsaqer Heavy Equipment LLC,111192720,46468,Abu Dhabi,971-2-6981111,http://www.alhamid-group.com/,,,,,,
S G S Gulf Limited,92461285,Bin Saqr Tower,Abu Dhabi,25557662,http://www.sgsgroup.com,,,,,,
Lahmeyer International Gmbh,92461124,Business Centre Building Sheikh Hamdan Bin Mohammed Street (Hamd,Abu Dhabi,26794615,http://www.load.ae,,,,,,
Abu Dhabi Knee & Sports Med Cent L LC,111192700,"6th Floor, Al Saif Tower, Electra Street",Abu Dhabi,971-2-6317774,,,,,,,
Abu Dhabi Co Operative Society,43871886,P.O. Box 833,Abu Dhabi,971-2-6440808,http://abudhabicoop.com,,,,,,
Al Nahda National Schools,99432153,Al Nahda Al Wataniya Building,Abu Dhabi,971-2-4452984,http://www.nahdaschools.com,,,,,,
Abu Dhabi Future Energy Company PJSC,107923718,PJSC Building Airport Road Masdar City,Abu Dhabi,971-2-653-3333,,,,,,,
Universal Voltas LLC,107976551,P.O.Box 25513,Abu Dhabi,971-2-6338920,http://www.universalvoltas.com/,,,,,,
Emirates International Investment Co WLL,111192636,Al Heel Tower,Abu Dhabi,971-2-6679777,http://www.nh.ae/,,,,,,
Superior Abu Dhabi LLC,134635635,P.O Box 41156,Abu Dhabi,971-2-6446070,,,,,,,
Benyan Development Co. L.L.C.,121407430,102 Arab Tower Hamdan Street,Abu Dhabi,971-26724322,http://www.benyan.ae,,,,,,
Kongsberg Oil & Gas Technologies,124729439,The Marina Village Bin Salem Holding,Abu Dhabi,971-2-4122255,http://www.kongsberg.com/en/kogt/contactus/officesaroundtheworld/,,,,,,
Al Khazna Insurance Company - Beda Zayed,124579461,,Abu Dhabi,971-28844290,http://www.alkhazna.com/branches.htm,,,,,,
Idroesse Infrastrutture - Abudhabi,120011418,Po Box 52645,Abu Dhabi,24475566,http://www.idroesse.it,,,,,,
Al Jaber Bitumen LLC,139496877,,Abu Dhabi,971-2-5553562,,,,,,,
Target Engineering Construction Co LLC,111088296,960,Abu Dhabi,971-2-6714700,http://www.target.ae/,,,,,,
Veolia Water  Ami- Middle East - Abudhabi,104248335,Pobox3659,Abu Dhabi,6774715,http://www.veoliawater-middle-east.com,,,,,,
Star Energy Corporation Ltd.,105436130,PO Box 7474,Abu Dhabi,971-02 6351522,http://www.segl.ae,,,,,,
Al Dahra Agriculture - L L C.,123227537,Po Box 18011,Abu Dhabi,6565000,,150000000.0,,,,,
Al Bawardi Enterprises - L L C,96930357,Po Box 4118,Abu Dhabi,6815957,http://www.ae.ae,,,,,,
Ali and Sons Company L.L.C.,42385762,PO Box 2153,Abu Dhabi,971-02 6658000,http://ali-sons.com,,,,,,
Tawam Molecular Imaging Centre LLC,139492701,,Abu Dhabi,971-3-704-1777,http://www.tmic.ae,,,,,,
Advanced Pipes and Casts Company W.L.L.,136972819,Plot 40 M 35,Abu Dhabi,971-2-5511400,,,,,,,
Credit Agricole CIB - Abu Dhabi,42385800,"Al Muhairy Centre, Suite 502, Sh. Zayed 1st Street, Abu Dhabi",Abu Dhabi,971-2 6351100,http://www.ca-cib.com,,,,,,
Noor Al Khaleej LLC,46490155,,Abu Dhabi,971-12-6273270,http://www.al-hassan.com/contactus.html,,,,,,
Deloitte and Touche,42386103,PO Box 990,Abu Dhabi,971-02 6760606,http://www.deloitte.com,,,,,,
ThyssenKrupp Xervon U.A.E. - L.L.C.,92461510,Area No 1/10 South 15 Villa 1 & 2,Abu Dhabi,971-25587159,http://www.thyssenkruppxervon.de,,,,,,
Sybase Products Middle East,92461390,Po Box P.O. Box 45652,,26275911,http://www.sybase.ae,,,,,,
Al Hilal Bank PJSC,102687650,"PO Box 63111, Corniche St.",Abu Dhabi,971-2 4994444,http://www.alhilalbank.ae,,,,,,
Superior Oilfield Services Co WLL,111088289,SHK. ZAYED II,Abu Dhabi,971-2-6446070,http://www.superiorenergy.com,,,,,,
Amadeus Gulf Llc,111087954,PO Box 46969,Abu Dhabi,971-2-4937551,http://www.amadeus.com,,,,,,
Ali & Sons Oilfield Supplies&Services Co,111087949,"Ali &Sons Bldg., Zayed 2nd Street,",Abu Dhabi,971-2-6723900,http://www.asos.ali-sons.com/,,,,,,
DTZ International Limited,123841134,Mermaid Tower Mezzanine Floor Zayed 1st Street Khalidiya,Abu Dhabi,971-2667-4492,,,,,,,
Addar Real Estate Services LLC,121396665,,Abu Dhabi,971-2-633-6886,,,,,,,
Neo Biocon Pharmaceuticals,111088208,"NA02, AL DHAFRA ROAD - NEW AIRPORT ROAD,",Abu Dhabi,971-2-6585990,http://www.neopharma.ae,,,,,,
Tekaniyat,96930425,PO Box 4118,Abu Dhabi,971-02 6326111,http://tekaniyat.com,,,,,,
Uniarab Engineering & Oil Field Services,107923713,Suite 1202,Abu Dhabi,97126273400,http://www.uniarab.ae,,,,,,
Merck Sharp & Dohme,107377830,Al Khazna Tower 16Th Floor Nazda Street,Abu Dhabi,26998600,http://www.merck.com,,,,,,
Royal Jet LLC,111192629,60666,Abu Dhabi,971-2-5051777,http://www.royaljetgroup.com/,,,,,,
Al Shaheen LLC,111192861,Emirates Post Building,Abu Dhabi,971-2-8137444,http://alshaheenme.com/,,,,,,
Abu Dhabi Ports Company PJSC,111192697,End of Mina Road Next to,Abu Dhabi,971-2-6952000,http://www.adpc.ae,,,,,,
Burooj Properties LLC,111087996,"Al Bateen Business Tower C6, 1st-4th Flr",Abu Dhabi,971-2-6100100,http://www.burooj.ae,,,,,,
International Petroleum Investment Co,102157217,Al Muhairy Center Office Tower,Abu Dhabi,971-2-6336555,http://www.ipic.ae,51183648000.0,,,,,
Emirates Industrial Bank,42385866,Arab Monetary Fund Building,Abu Dhabi,971-2-6339700,http://www.eib.ae,132173000.0,,,,,
Laing Abu Dhabi L.L.C.,42385959,PO Box 27658,Abu Dhabi,971-02 6335447,http://www.emiratesholdings.com,,,,,,
Environmental Resources Management Limited - Abu Dhabi Branch,120011645,Po Box 4118,Abu Dhabi,24434132,http://www.erm.com,,,,,,
Arab Bank P.L.C.,96724630,Saeed Sultan Al Darmaki Bldg,Abu Dhabi,6392225,http://www.arabbank.ae,,,,,,
Oil Tech International,122874219,Po Box 108513,Abu Dhabi,6332975,,2400000.1,,,,,
Imagenation Abu Dhabi,104146713,P.O. Box 63,Abu Dhabi,971-2-4145666,http://www.imagenationabudhabi.com/,,,,,,
Zelan Holdings (M) Sdn. Bhd.-Abu Dhabi,121401569,No 202 ADCB Building,Abu Dhabi,971-2-6215-667,http://www.zelan.com,,,,,,
Al Jaber Transport & General Contracting Co.,121745662,,Abu Dhabi,971-25554300,,,,,,,
Xtramix Concrete Solution Mix LLC,139493938,,Abu Dhabi,971-2-5511118,http://www.xtramix.ae,,,,,,
GIBCA Petroleum Services LLC,122968782,,Abu Dhabi,971-2-6260222,http://www.gibca.com,,,,,,
NMC Holistic Health Centre,124754460,,Abu Dhabi,971-26332255,http://www.nmc.ae,,,,,,
International Engineering Technology,43523277,"PO Box 6037, Sheraton Residence Bldg., Khalidiya St.",Abu Dhabi,971-02 6655446,http://www.alhamed.com/ietinfo.htm,,,,,,
Ubs Ag,48584135,Adnic Building Shaikh Khalifa Street,Abu Dhabi,24069200,http://www.ubs.com,,,,,,
Al Yah Satellite Communications Co PJSC,111192730,Al Falah City,Abu Dhabi,971-2-5100000,http://www.yahsat.ae/,,,,,,
Abu Dhabi International Exhibitns Co WLL,111192687,"Al Khaleej Al Arabi Street,",Abu Dhabi,971-2-4446900,http://www.adnec.ae,,,,,,
Luxury Real Estate Development,120011385,"Mo Floor, Sultan Bakery Building Besides Emirates Discount Marke",Abu Dhabi,26411833,http://www.luxurydevelopment.ae,,,,,,
Salem Freight International Est,92460743,Po Box 44256,Abu Dhabi,6265888,http://www.sfi.com,,,,,,
Al Ghaith Group Est,126194546,"Tourist Club Area,",Abu Dhabi,26723800,,,,,,,
JC Maclean International FZCO,111088141,"NA02, HAMDAN BIN MOHAMMED STREET,",Abu Dhabi,971-2-6272427,http://www.jcmaclean.com/,,,,,,
Mediterranean Building Materials,122048019,Po Box 44694,Abu Dhabi,24483232,,24000000.0,,,,,
CAN Middle East L.L.C.,124753021,,Abu Dhabi,971-2-644-1338,,,,,,,
"Langan International, LLC-Abu Dhabi Branch",137067295,Corniche Road Al Hana Tower M Level Suite 109,Abu Dhabi,971-2-6359144,http://www.langan.com,,,,,,
Al Odaid Real Estate LLC,111192704,P.O.Box 19960,Abu Dhabi,971-2-6271322,http://www.alodaid.ae/,,,,,,
United Group Holding LLC,111192783,161,Abu Dhabi,971-2-6677774,http://www.dasholding.ae,,,,,,
Tasameem Projects Management Co LLC,111088297,"Suite No. 206, Al-Bateen",Abu Dhabi,971-2-6656631,,,,,,,
Raseen Technologies LLC,111088243,Al Neem Building 18 Th Floor,Abu Dhabi,971-2-6266406,http://www.raseen.ae,,,,,,
ILF Consulting Engineers,48609233,PO Box 73250,Abu Dhabi,971-2 6716500,http://www.ilf.com,,,,,,
EMDAD L.L.C.,51575151,PO Box 4118,Abu Dhabi,2 6349999,http://www.emdad.ae,,,,,,
Imperial College London Diabetes Centre,111088127,PO Box 48338,Abu Dhabi,971-2-5050800,http://www.icldc.ae/,,,,,,
GLOBALFOUNDRIES Technologies LLC,122044408,HQ Building 13th Floor Highway E10 Channel St,Abu Dhabi,971-2-496-3900,,,,,,,
Rotana Hotel Management Corporation Ltd,111088255,Capital Center,Abu Dhabi,971-2-6444412,http://www.rotana.com/,,,,,,
Action International Services L.L.C.,124484761,PO Box 41123,Abu Dhabi,971-02 5540180,http://www.action-is.com,,,,,,
Suwaidi Engineering Group L L C,92461298,Po Box 3333,Abu Dhabi,26727477,http://www.suwaidieng.com,,,,,,
CosmoSeis Inc,111088018,"CERT Technology Park P-Block,",Abu Dhabi,971-2-4451885,http://www.cosmoseis.com/,,,,,,
Middle East Medical Supplies,113815026,P.O Box 26143,Abu Dhabi,97126213322,http://www.memsuae.com,,,,,,
Citibank N.A. - Musaffah,111377480,"Prestige Twr No. 17, Near Mazyad Mall, MBZ City, Musaffah",Abu Dhabi,971-2 596 7612,http://www.citigroup.com/uae,,,,,,
Emirates Nuclear Energy Corporation,111377481,PO Box 112010,Abu Dhabi,97126595555,http://www.enec.gov.ae,,,,,,
Arabian Company For Furniture L L C,126266891,,Abu Dhabi,4465659,,,,,,,
DHS Oil International Pty Ltd,121700504,,Abu Dhabi,971-4-815-3817,http://www.vesinternational.com,,,,,,
Zari Zardozi,121418088,Al Raha Mall - Ground Floor,Abu Dhabi,971-25565188,http://www.zarizardozi.com,,,,,,
Descon Engineering Abu Dhabi,125630936,Mussafah Industrial Area ME-14 United Bank Limited Building,Abu Dhabi,971-25555807,http://www.descon.com,,,,,,
Abu Dhabi Land General Contracting LLC,138450022,Villa 3 Muroor Road Hadbat Al Zaafran,Abu Dhabi,971-2-4488900,,,,,,,
Al Mazroui Group,42385983,PO Box 97,Abu Dhabi,971-02 6729988,http://www.mazroui.com,,,,,,
Emirates Pre-insulated Pipes Industries LLC,124718838,Industrial city of Abu Dhabi Musafah,Abu Dhabi,971-25501991,http://www.eppi.ae,,,,,,
Liwa Energy Limited LLC,139493555,Al Mubadala Building New Airport Road,Abu Dhabi,971-24132222,,,,,,,
AMEC (United Arab Emirates),126325333,Shk Sultan Bin Hamdan Al Nahyan Building Building No E48-C8 5th Floor,Abu Dhabi,971-2-622-1155,,,,,,,
EMC Computer Systems Middle East,145686449,Bainuna Street 34,Abu Dhabi,+971 2 406 9743,http://www.emc.com/,,,,,,
Injaz Mena Investment Company PSC,98191420,PO Box 107394,Abu Dhabi,971-04 6728400,http://www.injazmena.com,,,,,,
Gulf Petrochemical Services L.L.C.,42385910,PO Box 17960,Abu Dhabi,971-03 7512341,,,,,,,
Mubarak & Brothers Financial & Property,111088202,P.O.Box 39996,Abu Dhabi,971-2-4443522,http://www.mbiuae.com/,,,,,,
DAS Holding,111088028,"4th floor, Office Twr Dusit Thani Cmplx",Abu Dhabi,971-2-4141111,http://www.dasholding.ae,,,,,,
Union Autoline Spare Parts LLC,111192652,MUBARAK HAMAD MUBARAK AL MANSOURY BLDG.,Abu Dhabi,971-2-4477636,http://www.autolineind.com/,,,,,,
Mubadala Capitaland Real Estate LLC,111192778,"Capitala Site Building, Al Moroor Street",Abu Dhabi,971-2-4121111,http://www.capitala.ae,,,,,,
Petro Middle East Recruitment,123249451,Po Box 802,Abu Dhabi,6212140,http://www.pme.ae/,40000000.0,,,,,
Al Babtain Leblanc Emirates For Telecommunication Systems Limited Liability Company,122967481,Po Box 51074,Abu Dhabi,6431828,,94642700.0,,,,,
Talal Abu Ghazaleh and Company International,42386092,PO Box 4295,Abu Dhabi,971-02 6724425,http://tagi.com/?lang=ar,,,,,,
Deutsche Babcock Middle East FZE,126344363,,Abu Dhabi,971-2-49959-99,http://www.babcock.bilfinger.com,,,,,,
White Aluminum Extrusion LLC,139495015,ICAD1 Mussafa,Abu Dhabi,971-2-5500947,http://www.whiteextrusion.com,,,,,,
Al Waha Capital PJSC,51208265,Etihad Towers 42nd Floor Tower 3,Abu Dhabi,971-2-6677343,http://www.wahacapital.ae,144479000.0,,,,,
Mohamed Abdulrahman Al Bahar Company L.L.C. - Abu Dhabi,42385789,PO Box 441,Abu Dhabi,971-02 5554200,http://www.albahar.com,,,,,,
Eads,92460901,P.O. Box 72186,Abu Dhabi,26812878,http://www.eads.com,,,,,,
Cosmo Oil Company Limited,92460807,Almasaood Bldg Hamdan Bin Mohammed St,Abu Dhabi,,http://www.cosmo-oil.co.jp,,,,,,
Kotak Mahindra International Ltd,111088154,"KHALIFA BIN ZAYED STREET,",Abu Dhabi,971-2-6229042,http://www.kotak.com/,,,,,,
RSK Environment L.L.C.,107936501,PO Box 46112,Abu Dhabi,971-02 6118500,http://www.rsk.co.uk,,,,,,
Khidmah LLC,137702353,"Mazyad Mall Tower 3, 10th Floor",Abu Dhabi,971-2-4080888,http://www.khidmah.com,,,,,,
Abu Dhabi Securities Exchange,111192785,"Al Ghaith Tower, Ground and 1st Floor",Abu Dhabi,971-2-6277777,http://www.adx.ae,,,,,,
Bank Saderat Iran - Abu Dhabi,42385798,"PO Box 700, Hamdan St.",Abu Dhabi,971-02 6225155,http://www.banksaderat.ae,,,,,,
Tamas Project Company L L C,120011297,Po Box 46447,Abu Dhabi,6266277,http://www.tamaspro.com,35000000.0,,,,,
MarCap LLC.,92500573,PO Box 30175,Abu Dhabi,971-02 6225100,http://www.marcap.ae,,,,,,
Noble Denton and Associates WLL,48871575,PO Box 27510,Abu Dhabi,971-02 6440739,http://www.nobledenton.com,,,,,,
Bin Jabr Group Limited,111192630,Bin Jabr Group Limited Building,Abu Dhabi,971-2-6419660,http://www.binjabr.com/,,,,,,
New Medical Centre Group-Dubai,138774656,"PO Box 6222, Al Quoz",Abu Dhabi,971-02 6332255,http://www.nmcgroup.net,,,,,,
Al Jaber Aluminum Extrusion L.L.C.,123156930,,Abu Dhabi,971-25553707,,,,,,,
Al Jaber Building L.L.C.,124718381,Sector 6 & 7 St,Abu Dhabi,971-25554376,http://www.aljaber.com,,,,,,
UAE Sponsorship Centre,124754435,,Abu Dhabi,971-26334383,http://www.nmc.ae/04_business_sectors/03_financial_services/uae_sponsorship.htm,,,,,,
Al Batin Business Centre L.L.C.,139495145,C6 Tower First Floor Bainuna St 34,Abu Dhabi,971-2-406-9444,,,,,,,
Al Ain Capital LLC,127706357,6th Floor Al Ain Tower,Abu Dhabi,971-2-6515555,,,,,,,
Emirates Business Group L.L.C.,126201414,Po Box 45662,Abu Dhabi,26658844,,,,,,,
John Buck International,111088145,"Al Wifaq Finance Building, 8th Floor",Abu Dhabi,,,,,,,,
Amana Steel Building Contracting LLC,111087957,5643,Abu Dhabi,971-2-6428383,http://www.amanabuildings.com/,,,,,,
Business Communications LLC,122787992,PO Box 2354,Abu Dhabi,971-2 6348495,http://www.bcluae.com,,,,,,
New Medical Centre Trading L.L.C,98409054,Po Box 6222,Abu Dhabi,26332255,http://www.nmcgroup.net,900000000.0,,,,,
Methaq Takaful Insurance Co,99262216,Building C54,Abu Dhabi,971-2-6565333,http://www.methaq.ae,284484800.0,,,,,
Arab Banking Corporation BSC,46490317,PO Box 6689,Abu Dhabi,971-02 6447666,http://www.arabbanking.com,,,,,,
Emirates Management Services Corp,111192842,UAE University Building,Abu Dhabi,971-2-7135039,http://www.khadamatuae.ae,,,,,,
Pivot Engineering & General Contracting,111088232,Al Wahda Commercial Tower,Abu Dhabi,971-2-6947999,http://www.pivot.ae/,,,,,,
Oger Abu Dhabi LLC,123167644,Al Sahel Towes Mezzanine Floor Khalidiya,Abu Dhabi,971-2-635-9777,,,,,,,
Al Geemi and Partners Contracting Company L.L.C.,42385761,PO Box 2877,Abu Dhabi,971-02 6328438,http://www.algeemi.com,,,,,,
Emirates Management Assistance Company EMASCO,48609244,PO Box 94,Abu Dhabi,971-02 6673535,http://www.alhamed.com/emascoinfo.htm,,,,,,
Khalidia International Group Of Companies Llc,126194818,Po Box 46446,Abu Dhabi,6810000,,,,,,,
Al Aqeel Spare Parts,96740618,PO Box 70506,Abu Dhabi,971-02 4456568,,,,,,,
Agility Abu Dhabi PJSC,111087940,PO Box 93971,Abu Dhabi,971-2-5099599,http://mubadala.ae,,,,,,
Denholm Yam,139493552,,Abu Dhabi,971-2-659-3333,,,,,,,
Tourism Development & Investment Company P.J.S.C,122874194,Po Box 126888,Abu Dhabi,4061400,,3582252900.0,,,,,
Atlas Medical,113814835,Al Masaood Towers,Abu Dhabi,97126217732,http://www.atlasmedical-uae.com,,,,,,
Al Tamimi and Co.,42386093,PO Box 44046,Abu Dhabi,971-02 6744535,http://www.tamimi.com,,,,,,
GAC MARINE L.L.C.,42385890,PO Box 8101,Abu Dhabi,971-25014900,http://www.gac.com/marine,,,,,,
Jenan Hotels and Resorts,111088142,P.O. Box 869,Abu Dhabi,971-2-6211661,http://www.jinanhotelsandresorts.com,,,,,,
Abu Dhabi Airports Company,111192669,Abu Dhabi Airports Company Building,Abu Dhabi,971-2-5055000,http://www.adac.ae/,,,,,,
Warid Telecom International LLC,134213417,"NA02, Khalifa Bin Zayed Street,",Abu Dhabi,971-2-6266406,http://www.waridtel.com,,,,,,
Abdul Azeez Yousuf Electronics,96740620,PO Box 25346,Abu Dhabi,971-02 6327059,,,,,,,
Royal Group Property Management,125228684,"Salam Street,",Abu Dhabi,971-2-8111111,http://www.royalgroupuae.com,,,,,,
Allied Projects (Overseas) Ltd.,42385765,"PO Box 4543, Khalifa Bin Zayed St.",Abu Dhabi,971-02 6265679,,,,,,,
Pannell Kerr Forster,120010525,Blue Tower Bldg,Abu Dhabi,,http://www.pkfuae.com,,,,,,
Habib Bank Limited,92461058,Skh.Saeed Bin Mohammed Alnahyan Bldg,Abu Dhabi,,http://www.habibbank.com,,,,,,
Cargotec (ARE) GULF WLL,125218606,Plot No 50 Shop Nos 12 & 13 M-9 Mussafah Industrial Area n a,Abu Dhabi,971-25541690,,,,,,,
Citibank N.A. - Abu Dhabi,42385831,PO Box 999,Abu Dhabi,971-02 6982304,http://online.citibank.com/US/,,,,,,
Ducont LLC,48261557,PO Box 500073,Dubai,971-43913000,http://www.ducont.ae,,,,,,
Finance House P.J.S.C.,51457805,PO Box 7878,Abu Dhabi,971-2-6194000,http://www.financehouse.ae,310260010.0,,,,,
Emirates CMS Power Company PJSC,107923708,Taweelah A2 IWPP,Abu Dhabi,971-2-6780848,http://www.adwea.ae,,,,,,
Bin Salem Group LLC,111192752,"khalidiya,",Abu Dhabi,971-2-4122222,http://binsalem.ae,,,,,,
National Takaful Co PJSC,125093243,PO Box 6457,Abu Dhabi,971-2-6138888,http://www.watania.ae,113581000.0,,,,,
National Bank of Umm Al Qaiwain,124752784,NBQ Building King Faisal Street Near Sh Zayed Mosque 1st Floor,Abu Dhabi,971-67066666,http://www.nbq.ae,129134200.0,,,,,
Abu Dhabi Terminals PJSC,125714867,PO Box 422,Abu Dhabi,971-02 6730600,http://www.adterminals.ae,,,,,,
Maximus Air LLC,111088182,Maximus Air Building,Abu Dhabi,971-2-4474900,http://www.maximus.aero/,,,,,,
Business Enterprises Services,98191437,PO Box 30514,Abu Dhabi,971-02 6420520,http://www.bes.ae,,,,,,
Travelex Emirates LLC.,137782415,Sheikh Ahmed bin Hamid Al Hamid Building Sheikh Zayed I Street,Abu Dhabi,971-25759660,http://www.travelexae.com,,,,,,
Hard Walls Cafe and Restaurant,48609241,"PO Box 43695, Marina Mall",Abu Dhabi,971-02 6814200,http://www.adcecogroup.com/associates/hardwalls.htm,,,,,,
Al Mazroui Engineering Company Llc,123284550,Po Box 97,Abu Dhabi,6724422,,200000000.0,,,,,
Al Ghaith Holding Company PJSC,111192716,P.O. Box 32323,Abu Dhabi,971-2-6262525,,,,,,,
Multi Chemical Establishment,111088203,AL MUSAFAH AREA,Abu Dhabi,971-2-5588000,http://www.alhamid-group.com,,,,,,
Fortune Super Equity Management LLC,111088083,Saeed Bin Saif Al Nahyan Building,Abu Dhabi,971-2-6817777,http://www.fortune-management.com,,,,,,
Cristal Hotels and Resorts,113824979,PO Box 72898,Abu Dhabi,971-02 6520000,http://www.cristalhotelsandresorts.com,,,,,,
Abu Dhabi Investment House PJSC,107923723,"Corniche Road,  106699",Abu Dhabi,971-2-6811233,,,,,,,
Fugro Global Environmental and Ocean Sciences,48609214,PO Box 43088,Abu Dhabi,971-2 5545101,http://www.geos.com,,,,,,
Abu Dhabi National Oil Company for Distribution,123860299,,Abu Dhabi,971-26771300,http://www.adnoc-dist.com.ae,,,,,,
Cegelec Abu Dhabi,123157944,Al Ain Ahlia Insurance Building 2nd Floor,Abu Dhabi,971-2-403-0600,,,,,,,
Cadelta Group,121414676,Minafree Port Area Minazayad,Abu Dhabi,971-6732111,,,,,,,
Barclays Bank PLC - Abu Dhabi,42385804,PO Box 1891,Abu Dhabi,971-02 4958555,http://www.barclays.ae,,,,,,
Germanischer Lloyd Se - Abu Dhabi,92460994,Po Box 36941,Abu Dhabi,24439870,http://www.gl-group.com,,,,,,
Dewan Architects and Engineers,111088031,"Villa B21, Marina Village,",Abu Dhabi,971-2-6655599,http://www.dewan-architects.com,,,,,,
Emirate Safety Services LLC,111192642,Salem Almehairaby Building,Abu Dhabi,971-5-06340812,http://www.emisafe.ae,,,,,,
Matajer LLC,111088178,"NA02, Al Nasr Street,",Abu Dhabi,971-2-4476678,http://www.matajer.ae/,,,,,,
Al Brooge Shares And Bonds Co WLL,111192890,Al Sayegh Tower,Abu Dhabi,971-2-6333116,http://www.brooge.com,,,,,,
Al Qudra Holding PJSC,98487042,Meena Towers,Abu Dhabi,971-2-6992222,http://www.alqudraholding.ae,,,,,,
Dussmann Gulf LLC,137782470,AL Najda St,Abu Dhabi,971-2-4433120,,,,,,,
Enerflex MENA Ltd,138933939,Al Gaith Tower Airport Road 14 Floor,Abu Dhabi,971-2-443-0015,,,,,,,
ADCB Finance (Cayman) Limited,121396501,Al Salam St,Abu Dhabi,971-26962222,,,,,,,
CAPM Investment PJSC,111088001,P.O.Box 105447,Abu Dhabi,971-2-6194661,http://www.capminv.com,,,,,,
Abu Dhabi National Properties LLC,125643599,Muroor Road Street 4 Opposite Madinat Zayed Shopping Centre,Abu Dhabi,971-2-659-4888,http://www.nbad.com/investment/adnp/,,,,,,
Al Fardan Exchange,48584054,"PO Box 498, Liwa St.",Abu Dhabi,971-02 6223222,http://www.alfardanexchange.com,,,,,,
Hobas Gulf Pipe Factory L.L.C.,48584005,PO Box 46231,Abu Dhabi,971-02 5826288,http://www.hobas.com,,,,,,
Halliburton KBR,42385916,"PO Box 57, 11th Fl. Lulu Centre",Abu Dhabi,971-02 6442212,http://www.halliburton.com,,,,,,
Standard Chartered Bank - Abu Dhabi,42386085,PO Box 240,Abu Dhabi,971-02 6777400,http://www.standardchartered.ae,,,,,,
Tv Sd Middle East Llc,92461545,Po Box 45117,Abu Dhabi,26767600,http://www.tuvusudme.com,,,,,,
National Health Insurance Co,104248334,"Airport Road,",Abu Dhabi,971-2-6149555,http://www.damanhealth.ae,,,,,,
SEG Middle East LLC,111088263,P.O. Box 42278,Abu Dhabi,971-2-5549544,,,,,,,
UAE Exchange Centre LLC,111192659,Al Sayegh Center,Abu Dhabi,971-2-6105555,http://www.uaeexchange.com/,,,,,,
National Central Air Condition Company - P S C - Abu Dhabi,123262655,Po Box 29478,Abu Dhabi,6455007,,1128738000.0,,,,,
Mashreqbank P.S.C - Mashreq Al Islami Division,121405034,Ground Floor Blue Tower Khalifa Street,Abu Dhabi,971-4-424-4411,http://www.mashreqalislami.com,,,,,,
PAL Technology Services LLC,111088222,"2nd Floor, Royal Group Building",Abu Dhabi,971-2-6428777,http://www.paltechnology.com/,,,,,,
Spectrum Light Block LLC,111088280,ICAD 1 Mussafah,Abu Dhabi,971-2-5500702,http://slb-uae.com/,,,,,,
Al Tamouh Investments Company LLC,111192806,"6th Floor, East Wing Tower,, P.O. Box 10",Abu Dhabi,971-2-6442218,,,,,,,
Arab German International Broker  Finance Brokers Llc,120012190,Po Box 4475,Abu Dhabi,6518888,http://www.agib.ae,,,,,,
The Housing Bank For Trade & Finance - (Representative Office) - Abu Dhabi,120010945,Shk.Khalifa Bin Zayed Street,Abu Dhabi,,http://www.hbtf.com,,,,,,
Campenon Bernard Sge - Abu Dhabi,92460877,Blue Tower Bldg,Abu Dhabi,26264370,http://www.vinci.net,,,,,,
MENACORP,100971477,PO Box 108377,Abu Dhabi,971-2 6271215,http://www.wafafs.com,,,,,,
Austin-Smith:Lord Abu Dhabi,125630991,Al Nasr Street Qasr Al Hosn Cultural Quarter,Abu Dhabi,971-2-631-7072,http://www.austinsmithlord.com,,,,,,
Cemex Super Mix L L C,92461535,Pobox:72071Abudhabi,Abu Dhabi,25515501,http://www.cemex.com,,,,,,
Higher Corporation for Specialized Econ.,111088111,P.O.Box: 36000,Abu Dhabi,971-2-5500000,http://www.zonescorp.com,,,,,,
Al Marjan Geoservices LLC,111192772,Z14 P19 Abu Dhabi Municipality Building,Abu Dhabi,971-2-5553388,http://www.alfahim.com,,,,,,
Enviromena Power Systems LLC,111088062,"SAF Block 5, Opp, Presidential Flight",Abu Dhabi,971-2-6353213,http://www.enviromena.com,,,,,,
Emirates Crown Lube Company Ltd,111192755,P.O.Box 9200,Abu Dhabi,971-2-5542444,http://www.emicrown.com/,,,,,,
Danway Fusion Glass LLC,111192862,P.O. Box 105638,Abu Dhabi,971-2-5501665,http://www.danway.ae/,,,,,,
Patchi L.L.C.,126967640,PO Box 35497,Abu Dhabi,971-02 6666748,http://www.patchi.com,,,,,,
Bin Hamoodah Automotives L.L.C.,127979943,PO Box 203,Abu Dhabi,971-02 4448888,http://www.binhamoodahauto.com,,,,,,
Emsons L L C,92461486,Po Box 321,Abu Dhabi,26731660,http://www.emsons.com,,,,,,
Emirates EMI,50835922,PO Box 42802,Abu Dhabi,971-02 6713500,http://www.alhamed.com,,,,,,
Abu Dhabi Finance PJSC,107377819,Abu Dhabi Finance Building,Abu Dhabi,971-2-4018555,http://www.adf.ae,,,,,,
Al Rayan Investment PJSC,111192856,Crossing of Al Khaleej Al Arabi Road,Abu Dhabi,971-2-6666332,http://www.alrayan.ae,,,,,,
Dragomar International AG,42385858,PO Box 27297,Abu Dhabi,971-02 6327600,,,,,,,
Target Engineering Construction Company L L C,120010749,Po Box 960,Abu Dhabi,26714700,http://www.target.ae,387000000.0,,,,,
SHUAA Securities LLC,121406073,Corniche Road Abu Dhabi National Islamic Finance Building,Abu Dhabi,971-24090700,http://www.shuaasecurities.com,,,,,,
Menacorp Financial Services L.L.C.,126967659,PO Box 108377,Abu Dhabi,971-02 6271215,http://www.menacorpfinance.com,,,,,,
Future Pipe Industries Group Ltd.,127668768,,Abu Dhabi,971-2-627-0008,http://www.futurepipe.com,,,,,,
Abu Dhabi National Carpet Factory,98191431,PO Box 30085,Abu Dhabi,971-02 5515100,http://www.adnc.ae,,,,,,
Max Rock LLC,120029369,"Ali & Sons Building,",Abu Dhabi,971-2-6713993,http://www.maxrock.ae,,,,,,
Detecon International Gmbh - Abu Dhabi,120011361,Tourist Club,Abu Dhabi,,http://www.detecon.com,,,,,,
Lufthansa German Airlines,92461166,Al Dhafra Street,Abu Dhabi,,http://www.uae.lufthansa.com,,,,,,
Group 3 Engineers and Contractors,92500571,PO Box 4390,Abu Dhabi,971-2 6222760,http://www.adcecogroup.com,,,,,,
Zawaya Decor L.L.C.,92500585,PO Box 47780,Abu Dhabi,971-02 6270327,http://www.adcecogroup.com,,,,,,
Al Rumaithy General Trading Establishment,42751316,PO Box 4356,Abu Dhabi,971-02 6724472,http://www.alrumaithy.com,,,,,,
Al Ramz Securities LLC,137784416,"Sky Tower, 22nd Floor, Al Reem Street,",Abu Dhabi,971-2-6262626,http://en.alramz.ae,,,,,,
Central Bank Of The United Arab Emirates,98460543,Po Box 854,Abu Dhabi,26652220,http://www.centralbank.ae,4533000000.0,,,,,
Abu Dhabi Transmission & Despatch Company,92461558,,Abu Dhabi,971-2-4164000,http://www.transco.ae,,,,,,
Mitsubishi Heavy Industries Limited,92461190,Po Box 912,Abu Dhabi,26447373,http://www.mitsubishicorp.com,,,,,,
National Bank of Ras Al Khaimah PSC - Abu Dhabi,138505729,"PO Box 2289, Hamdan St.",Abu Dhabi,971-02 6448227,,,,,,,
Associated Construction & Trading Group,126201412,Po Box 526,Abu Dhabi,26678888,,,,,,,
National Horticultural Co.,43523278,"PO Box 43832, Mezzanine Fl., Falcon Tours Bldg., Khalidiya",Abu Dhabi,971-03 7347373,http://www.alhamed.com/NHC.htm,,,,,,
United Eastern Group LLC,92461055,"Liberty Tower, 4th Floor,",Abu Dhabi,971-2-6272737,http://www.ueg.ae,,,,,,
Paris-Sorbonne University Abu Dhabi,125228686,Paris-Sorbonne University Abu Dhabi,Abu Dhabi,971-2-6569555,http://www.sorbonne.ae,,,,,,
Al Mirfa Power Company,92461561,,Abu Dhabi,971-2-8952200,http://www.ampc.ae,,,,,,
Al Khazna Insurance Company - Al Mussafah Light Vehicle,123860285,,Abu Dhabi,971-25544561,,,,,,,
AJECOBOND - Al Jaber Aluminium Composite LLC,123332898,,Abu Dhabi,971-2-5501777,,,,,,,
Ian Banham & Associates- Consulting Engineers,121405667,PO Box 2853,Abu Dhabi,971-24439961,http://www.ianbanham.com,,,,,,
Transport Telematic Systems LLC,137383486,Al Nasr Street,Abu Dhabi,971-2-633-2564,,,,,,,
Waagner-Biro Emirates Contracting L.L.C.,139494106,8th floor Office no 083 United Arab Bank Building Khalifa Street,Abu Dhabi,971-2-6260416,,,,,,,
KazStroyService Middle East,138777838,302 Al Otaiba Building Airport Road,Abu Dhabi,971-2-622-75-66,,,,,,,
Bin Hamoodah Properties L.L.C.,127979944,PO Box 203,Abu Dhabi,971-2 6176781,http://www.binhamoodahproperties.ae,,,,,,
Fugro Middle East B.V.,48609213,PO Box 4447,Abu Dhabi,971-02 5542891,http://www.fugrome.com,,,,,,
Contax Partners,92507438,"P/1057, Muroor Street",Abu Dhabi,97126222966,http://www.contaxpartners.com,,,,,,
Abu Dhabi National Hotels Company - Compass Middle East - L L C,92461403,Po Box 46806,Abu Dhabi,24447228,http://www.adnh.com,,,,,,
International Capital Trading,113815100,Villas B9 - B13,Abu Dhabi,971-2-6525555,http://www.ict.ae/,,,,,,
Idemitsu Kosan Company Limited,92461632,Khalaf Alotaiba Bldg,Abu Dhabi,26334740,http://www.idemitsu.co.jp,,,,,,
Anadrill International,92460700,P.O. Box 21,Abu Dhabi,25554824,http://www.slb.com,,,,,,
Enviromena Power Systems,107923719,Masdar City SAF Block 5,Abu Dhabi,97126353213,http://www.enviromena.com,,,,,,
Abu Dhabi National Islamique Financ PJSC,111192885,Golden Beach Tower Building,Abu Dhabi,971-2-4104444,http://www.adnif.ae/,,,,,,
Falcon Private Financial Advisory LLC.,139496992,Das Tower Suite 1802 Khalidiyah Corniche Road,Abu Dhabi,971-2-222-6655,,,,,,,
Emirates Aluminium,111192661,Emirates Aluminium Complex,Abu Dhabi,971-2-5092222,http://www.emal.ae/,,,,,,
Al Khazna Insurance Company - Abu Dhabi Traffic,123784239,Najda Street,Abu Dhabi,971-24493497,http://www.alkhazna.com/medical/medauhph.htm,,,,,,
Al Jaber Iron & Steel Foundry LLC,139493415,,Abu Dhabi,971-2-5541524,,,,,,,
Mechanical & Civil Engineering Contractors Ltd,120011176,Po Box 2307,Abu Dhabi,26666462,http://www.macecontractors.com,,,,,,
International Bechtel Company Ltd.,42385935,PO Box 2661,Abu Dhabi,971-02 6998400,http://www.bechtel.com,,,,,,
AL AHLIA MONEY EXCHANGE BUREAU,111192896,Omeir Bin Yousuf Building,Abu Dhabi,971-2-6229666,http://www.ahaliaexchange.com,,,,,,
Tek Signals,48584163,PO Box 47520,Abu Dhabi,971-2 6272701,http://www.teksignals.com,,,,,,
Gulf Oil and Gas,48584164,PO Box 7539,Abu Dhabi,971-2 6393848,http://www.gogas-me.com,,,,,,
Abu Dhabi Gas Development Co. Ltd.,123114706,,Abu Dhabi,971-2-654-2222,http://www.alhosngas.com,,,,,,
Sheikh Khalifa Medical City,107923712,P.O. Box 51900,Abu Dhabi,9728190000,http://www.skmc.ae,,,,,,
Capital Investment LLC,111088000,PO Box 35666,Abu Dhabi,971-2-6523999,http://www.capitalinvestment.ae/,,,,,,
Caracal International LLC,111088002,Tawazun Industrial Park Ajban,Abu Dhabi,971-2-4927111,,,,,,,
Mott MacDonald Limited - Abu Dhabi,42385996,"Al Hashmi Twr., Airport Rd.",Abu Dhabi,971-02 4120200,http://www.mottmac.com,,,,,,
Mubadala Petroleum LLC,123227546,Sowwah Square Al Maryah Island Al Maqam Tower 27 28 & 29 Floor,Abu Dhabi,971-2-818-6000,http://www.mubadalapetroleum.com,,,,,,
Danzas Abu Dhabi LLC,125631266,Mezzanine Fl Mafco Bldg Muroor E Rd,Abu Dhabi,971-2-4452788,,,,,,,
Mubadala Infrastructure Partners Ltd,120029354,ADNIC Building,Abu Dhabi,971-2-4174200,http://www.mip.ae,,,,,,
Al Qudra Real Estate LLC,111192633,P.O.Box 48111,Abu Dhabi,971-2-6992222,http://www.alqudrare.ae/,,,,,,
Abu Dhabi Sewerage Services Co - PJSC,111192692,"Sky tower,  108801 Reem Island",Abu Dhabi,971-2-6962694,http://www.adssc.ae,,,,,,
Ajmal Khan Mohammad Music Centre L L C,126201410,Po Box 8227,Abu Dhabi,4444333,,986299.99,,,,,
Al Ahli Bank of Kuwait KSC - Abu Dhabi,123762052,PO Box 7941,Abu Dhabi,971-02 4015111,http://abk.eahli.com/abk,,,,,,
Gulf International Bank BSC,42385909,"PO Box 27051, Arab Monetary Fund Bldg., Corniche Rd.",Abu Dhabi,971-02 6214747,http://www.gib.com,,,,,,
Al Farida Investments,111192839,P.O. Box 11,Abu Dhabi,971-2-6675599,http://www.alfaridainvst.com,,,,,,
Al Wathba Marionnet L L C,111192838,41522,Abu Dhabi,971-2-6661522,http://www.awm-datepalm.com/,,,,,,
Al Tamimi & Partners Advocacy & Legal,111192670,Murabah Al Sw Bldg Al Sila Twr Lvl 26,Abu Dhabi,971-2-8130444,http://www.tamimi.com/,,,,,,
Prestige Jet,111088237,"NA02, NA02,",Abu Dhabi,,http://www.prestige-jet.com/,,,,,,
Stream FZC,111088285,RAK Free Zone Promotion Centre 1 st Fl,Abu Dhabi,971-2-6994725,http://www.stream-systems.net/,,,,,,
International Golden Group PJSC,123278912,Bani Yas Tower Corniche Road,Abu Dhabi,971-2-626-6661,http://www.iggroup.ae,,,,,,
Nippon Oil-Dhabi,92461211,,Abu Dhabi,971-2314991,http://www.eneos.co.jp,,,,,,
Spaceage General Cont. Co. W.L.L,107923709,P.O.Box No 43693,Abu Dhabi,97125500150,http://www.spaceage-electrical.com,,,,,,
Toxido Pest Control LLC,139494069,Mussafah Industrial Area,Abu Dhabi,971-2-5828454,,,,,,,
VARANGIS TURNKEY INTERIOR PROJECTS L.L.C,139493507,Level 4 The Union National Bank Building Corniche Road West,Abu Dhabi,971-2-6281600,,,,,,,
Gulf Automation Services and Oilfield Supplies Co.,51575147,PO Box 6203,Abu Dhabi,971-2 6276600,http://www.gasos.com,,,,,,
Etisalat Facilities Management L.L.C.,121647229,"PO Box 3838, Airport Rd.",Abu Dhabi,971-2 6182731,http://www.etisalatservices.com,,,,,,
The Royal Bank of Scotland N.V. - Abu Dhabi,111377493,PO Box 43821,Abu Dhabi,971-4-408-4005,http://www.rbsbank.ae,,,,,,
Abu Dhabi Investment Company,42385730,Capital Tower,Abu Dhabi,971-2-6926101,http://www.investad.com/,,,,,,
Emirates Ship Investment Co LLC,48584004,"Al Neem Tower, 4th Floor,",Abu Dhabi,971-2-4941800,http://www.eships.ae/,,,,,,
Al Masaood Mowlem L.L.C.,48609189,PO Box 322,Abu Dhabi,971-02 6726224,http://www.masaood.com,,,,,,
Masdar Initiative,107923725,Opposite Presidential Flight,Abu Dhabi,97126533333,http://www.masdar.ae,,,,,,
Etisalat Information Services L.L.C.,121647228,PO Box 3838,Abu Dhabi,971-2 6182731,http://www.etisalatservices.com,,,,,,
MEC,126926622,3rd Floor AMF Building Corniche Road,Abu Dhabi,971-2-633-1811,http://www.mecglobal.com,,,,,,
YSI Abu Dhabi Co. Ltd.,125631050,Office 2 Building 130 New Shahama,Abu Dhabi,971-2-563-1316,,,,,,,
Al Masaood Automobiles,120012612,PO Box 322,Abu Dhabi,971-02 6722300,http://www.nissan-almasaoodautomobiles.com,,,,,,
Emirates Palace Hotel,111192835,"Emirates Palace Abu Dhabi,",Abu Dhabi,971-2-6909000,http://www.emiratespalace.com,,,,,,
ADNOC Distribution,107923721,Al Salam Street,Abu Dhabi,971-2-677-1300,http://www.adnoc.ae,,,,,,
Al Jaber Delta Energy Services & General Construction,124754277,,Abu Dhabi,971-22040350,,,,,,,
Partex Gas Corporation,121394684,Sheikh Khalifa St Blue Tower 6th Fl 604,Abu Dhabi,971-26271395,,,,,,,
Emirates Cold Storage Company,121709337,,Abu Dhabi,971-5553455,,,,,,,
New Medical Centre Group - Abu Dhabi,42386024,PO Box 6222,Abu Dhabi,971-02 6332255,http://www.nmc.ae,,,,,,
Sigma Engineering Works,42386075,PO Box 3555,Abu Dhabi,971-02 5510400,http://www.sigma.ae,,,,,,
Tasweek Real Estate Development&Mktg PJS,138052963,Kamala Tower,Abu Dhabi,971-2-6581856,http://www.tasweekuae.ae,,,,,,
White Aluminium Extrusion LLC,111192658,White Aluminium Extrusion L.L.C Building,Abu Dhabi,971-2-5500947,http://www.dubaiinvestments.com/,,,,,,
Ali and Sons Industrial Projects L.L.C.,98191417,PO Box 915,Abu Dhabi,971-02 6723900,http://asip.ali-sons.com,,,,,,
Al Hassan Engineering Co Abu Dhabi Llc,111087945,47943,Abu Dhabi,971-2-5868560,http://www.al-hassan.com/,,,,,,
High - Point Rendel Limited - Abu Dhabi,92461261,Mohammed Abdulla Al Otaiba Bldg,Abu Dhabi,26788977,http://www.highpointrendel.com,,,,,,
Cegelec,92460765,P.O. Box 47055,Abu Dhabi,26272680,http://www.cegelec.com,,,,,,
Toyo Kanetsu K K,92460841,Rahma Almasaood Bldg,Abu Dhabi,,http://www.toyokanetsu.co.jp,,,,,,
BNP Paribas Abu Dhabi,42385803,Al Bateen Area Street No 32,Abu Dhabi,971-26938888,http://eau.bnpparibas.com,,,,,,
Manazel Real Estate PJSC,107923716,,Abu Dhabi,971-2-6444466,http://www.manazel-re.com,,,,,,
Lockheed Martin Global,92461160,P.O. Box 47796,Abu Dhabi,26451776,http://www.lockheedmartin.com,,,,,,
Oasis International Leasing Company Pjsc,104354628,Po Box 28922,Abu Dhabi,6273880,http://www.oasisleasing.com,204645000.0,,,,,
"Al Jaber Trailers, Steel and Metal Works Establishment",123860295,,Abu Dhabi,971-25554300,,,,,,,
Cameron - Middle East Operations,92460876,P.O. Box 3555,Abu Dhabi,25511313,http://www.c-a-m.com,,,,,,
ELS Language Centers ME,48609246,PO Box 3079,Abu Dhabi,971-02 6651516,http://www.alhamed.com/elsinfo.htm,,,,,,
Emirates National Electromechanical L.L.C.,124729319,,Abu Dhabi,971-2-6711141,http://www.ene-llc.com,,,,,,
Al Mutawa Marine Work Establishment,111192736,P.O.Box 35440,Abu Dhabi,971-2-5552800,http://www.mutawamarine.com,,,,,,
Rohde & Schwarz Emirates LLC,122873636,HQ Aldar Building 2nd Floor Al Raha Beach,Abu Dhabi,971-2-4926-299,,,,,,,
Ghanem Ali Bin Hamoodah and Sons L.L.C.,126967658,PO Box 27273,Abu Dhabi,971-2 6229988,http://www.ghanemandsons.com,,,,,,
Electra Abu Dhabi,48609253,PO Box 121,Abu Dhabi,971-02 6666548,http://www.alhamed.com/electrainfo.htm,,,,,,
Deutsche Bank - Abu Dhabi,92461518,Baniyas Street,Abu Dhabi,4192200,http://www.db.com,,,,,,
Dolphin Energy Limited,92461546,PO Box 33777,Abu Dhabi,97126995500,http://www.dolphinenergy.com,,,,,,
Abu Dhabi Distribution Company,92461562,,Abu Dhabi,971-26423000,http://www.addc.ae,,,,,,
Tourism Development & Investment Co LLC,102157208,"Sheikh Zayed Street,",Abu Dhabi,971-2-4061400,http://www.tdic.ae/,,,,,,
National Holding LLC,111192789,P.O. Box 111966,Abu Dhabi,971-2-6577000,http://www.nh.ae/,,,,,,
Aabar Properties LLC,139494968,IPIC Square  21st Floor 4th Street Muroor Road,Abu Dhabi,971-2-222-2233,http://www.aabarproperties.com,,,,,,
Albert Abela Company ( Abu Dhabi ) W L L,92461472,Po Box 143,Abu Dhabi,66674610,,,,,,,
Keo International Consultants,92461099,Po Box P.O. Box 27594,,26451512,http://www.keoic.com,,,,,,
Al Nasr Contracting Company LLC,111192690,Hamad Bhyan Al Amri Building,Abu Dhabi,971-2-6420002,http://www.alnasruae.com,,,,,,
Abu Dhabi Mafraq Hotel,111192855,Mafraq Hotel,Abu Dhabi,971-2-6596666,http://www.mafraq-hotel.com/,,,,,,
Al Ghaith Holdings,100971491,PO Box 32323,Abu Dhabi,971-02 6262525,,,,,,,
National Cement Factory - L L C,120029830,Po Box 106077,Abu Dhabi,5500933,http://www.ncfuae.com,,,,,,
Tamouh Ambitions Unlimited,111088295,"18th Floor, Tamouh Tower",Abu Dhabi,971-2-4177777,http://www.tamouh.com/,,,,,,
Clariant Oil Services,49409845,"ESNAAD Mussafah Offshore Supply Base, Mussasfah Industrial Estate",Abu Dhabi,971-02 5549299,http://www.clariant.com/en/Solutions/Business-Units/Industrial-and-Consumer-Specialties,,,,,,
KARL STORZ Endoscopy Gulf & Near East,121410670,Villa #7 Mushrif Business Park,Abu Dhabi,971-2-4477593,,,,,,,
Safar-Al Baharie Oilfield Services,107923707,"Office 1-03, Building 2",Abu Dhabi,97144230922,http://www.safaroil.com,,,,,,
Crypto Ag Middle East,120010928,"Al Yaziah Building, Mezzanine 01 Murour Road, Street No. 4",Abu Dhabi,4455737,http://www.crypto.ch,,,,,,
Exeed Industries L.L.C.,126967664,PO Box 38970,Abu Dhabi,971-2 4996999,http://www.exeed.ae,,,,,,
Yateem Optician Limited,111088329,Yateem Group Building,Abu Dhabi,971-2-6776222,http://www.yateemgroup.com/,,,,,,
"Northrop Grumman Electronic Systems International, Inc.,",101788432,Shaik: Srour Bin Mohammed Al Nahyyan Buldg-Tourist Club,Abu Dhabi,6455677,http://www.northropgrumman.co.uk,,,,,,
Capitala,102157213,"Capitl Ste Bldg Zyd Sprts Cty Twr,Grnd F",Abu Dhabi,971-2-4121111,http://www.capitala.ae,,,,,,
Etisalat Services Holding L.L.C.,121647227,PO Box 3838,Abu Dhabi,971-02 6182731,http://etisalatservices.com,,,,,,
Al Jaber Heavy Lift,123029217,Corniche Side 5th R/A,Abu Dhabi,971-2-5825454,http://www.ajhl.com,,,,,,
Ados Sparrows Offshore Services Ltd.,120011130,Po Box 4015,Abu Dhabi,25544401,http://www.sparrowsgroup.com,,,,,,
Eshraq Properties Co PJSC,111088069,P.O. Box 108737,Abu Dhabi,971-2-6354854,http://www.eshraquae.com,268263000.0,,,,,
LeasePlan Emirates Ltd,111192819,Al Fhm Emrts Mtr Co Bdg Ofc Ste 115-119,Abu Dhabi,971-2-4046444,http://www.leaseplan.ae,,,,,,
Al Hamed Cercon,51575145,PO Box 42148,Abu Dhabi,971-2 6672200,http://www.alhamed.com,,,,,,
Telefonaktiebolaget L M Ericcson,50094128,Po Box 3704,Abu Dhabi,26968600,http://www.ericsson.com,,,,,,
The Boston Consulting Group - Abu Dhabi,120011164,Al Niyadi Building 1st Floor Airport Rd,Abu Dhabi,971-2-6529-600,http://www.bcgmiddleeast.com,,,,,,
"Dck International, LLC",125518440,,Abu Dhabi,971-50-848-5106,,,,,,,
Al Jaber Tunneling & Mechanical Works Est,125630772,,Abu Dhabi,971-25553335,http://www.aljaber.com,,,,,,
Gulf Air Conditioning Manufacturing Industries L.L.C,138782916,Plot No 36D14 ICAD-1 Industrial City,Abu Dhabi,971-25506777,http://www.gami.ae,,,,,,
Taweelah A2 Operating Company,111192693,"Tawila AQ Station,  AL Tawila Zone",Abu Dhabi,971-2-5067100,http://www.adwea.ae,,,,,,
Falcon General Services,48609252,PO Box 41698,Abu Dhabi,971-02 6815100,http://www.alhamed.com/falcongeninfo.htm,,,,,,
Abu Dhabi Petroleum Company Ltd.,42385742,PO Box 26696,Abu Dhabi,971-02 6274288,,,,,,,
Kudsi Law Firm,42385958,PO Box 46010,Abu Dhabi,971-02 6336500,http://www.kudsilawfirm.ae,,,,,,
United Bank Limited-Abu Dhabi,42386109,PO Box 3052,Abu Dhabi,971-02 5996505,http://www.ubl.com.pk,,,,,,
AlMansoori Special Eng Co LLC,111192719,"17th Floor, Mussafah Industrial Area,",Abu Dhabi,971-2-8157000,http://www.almansoori.biz,,,,,,
Green Crescent Insurance Company PJSC,102157223,Corniche Tower,Abu Dhabi,971-2-4084700,http://www.green-crescent.com,73706001.0,,,,,
"Bilfinger Berger Construction, LLC",121413540,Massionan Office 2 Bldg 129 4th St,Abu Dhabi,971-26324005,http://www.bilfingerberger.com,,,,,,
Etihad Rail,127978265,PO Box 989,Abu Dhabi,971-02 4999999,http://www.etihadrail.ae,,,,,,
Al Wifaq Finance Company PJSC,111192667,"Al Odaid Offices Tower, Airport Road,",Abu Dhabi,971-2-4035600,,,,,,,
Awraq Islamic Shares and bonds Company,111087979,RAK Ceramics Building,Abu Dhabi,971-2-6819366,https://www.awraqislamic.com,,,,,,
El Nilein Bank Plc,120012196,Po Box 46013,Abu Dhabi,26729300,http://www.nileinuae.com,,,,,,
Pacific Middle East LLC (Abu Dhabi),125630766,,Abu Dhabi,971-24146665,,,,,,,
Al Wathba Concrete Blocks Factory,48609181,PO Box 4781,Abu Dhabi,971-02 5821158,,,,,,,
Commercial Bank of Dubai PSC - Abu Dhabi,42385832,PO Box 2466,Abu Dhabi,971-2 6268400,http://www.cbd.ae,,,,,,
Foster Wheeler International,42385887,PO Box 26702,Abu Dhabi,971-02 6222117,http://www.fwc.com/contact/ec.cfm,,,,,,
The Offset Program Bureau,48609228,PO Box 908,Abu Dhabi,971-02 6160000,http://www.offset.ae,,,,,,
Exova Limited - Abu Dhabi,50089044,Po Box 9191,Abu Dhabi,25582345,http://www.exova.com,,,,,,
Mitsui Sumitomo Insurance Company Limited,92461401,Skh. Maryam Bint Rashed Al Otaibah Bldg,Abu Dhabi,26458060,http://www.msig.com,,,,,,
Reem Investments PSC,111088249,Reem Investments Building,Abu Dhabi,971-2-4438900,http://reeminvestments.com/,,,,,,
Abu Dhabi Holding,111192688,"Al Ghaith Tower, 11th Floor,",Abu Dhabi,971-2-6267000,http://www.adh.ae,,,,,,
United Alsaqer Heavy Equipment L.L.C.,123166324,PO Box 46468,Abu Dhabi,971-02 5545900,http://www.alsaqerheavyequipment.com,,,,,,
Insurance House,113833841,PO Box 129921,Abu Dhabi,971-2-4934444,http://www.insurancehouse.ae/,88059601.0,,,,,
NBAD Securities LLC,111192718,Sultan Bin Zayed Al Nahyan Building,Abu Dhabi,971-2-6161600,http://www.nbad.com,,,,,,
Awe Middle East Llc,120010414,Po Box 46995,Abu Dhabi,,,,,,,,
Al Nasser Holding Company,111192731,Falcon Tower,Abu Dhabi,971-2-6391100,http://www.anholdings.com,,,,,,
Escan Real Estate PJSC,111192694,P.O.Box 93888,Abu Dhabi,971-2-4474202,http://www.escan.ae,16007000.0,,,,,
Emirates Stallions Properties LLC,136967196,Silver wave Tower 4th Floor - unit 404 Meena Street,Abu Dhabi,971-2-6448090,,,,,,,
Al Hamed Development and Construction L.L.C.,48609250,PO Box 45885,Abu Dhabi,971-02 6672200,http://www.alhamed.com/ahdcinfo.htm,,,,,,
Al Qudra Sports Management,111192649,"Al Saada Street, P.O.Box. 42612",Abu Dhabi,971-2-4488012,http://www.alqudrasm.com/,,,,,,
Universal Trading Company,92461417,Po Box 4399,Abu Dhabi,26335331,http://www.universal-uae.ae,,,,,,
Al Badr Money Exchange,111192889,33391,Abu Dhabi,971-2-6344100,http://www.albaderexchange.com,,,,,,
Arabian Power Company,107923710,Sas Al Nakhl Island,Abu Dhabi,97125588899,http://www.arabianpower.ae,,,,,,
Abu Dhabi Basic Industries Corporation,99413950,PO Box 7063,Abu Dhabi,971-2-6988444,http://www.adbic.com,,,,,,
Sheraton Abu Dhabi,42386072,"P.O. Box 640, Corniche Road,  Abu Dhabi, United Arab Emirates",Abu Dhabi,26773333,http://www.sheraton.com,,,,,,
C4 Advanced Solutions LLC,111087997,"1st Floor, Khalifa A Trading Center",Abu Dhabi,971-2-8157600,http://www.c4as.ae/,,,,,,
Horizon Energy LLC,111088116,"Offices 403 & 404, 4th Floor",Abu Dhabi,971-2-6715544,http://www.horizonenergy.ae/,,,,,,
Emirates Computers Ltd,111192807,Emirates Computers Building,Abu Dhabi,971-2-6914100,http://www.emiratescomputers.ae,,,,,,
Tamani General Contracting,96740624,PO Box 43665,Abu Dhabi,971-02 6270560,http://www.tamani.ae,,,,,,
Noor Capital PSC,111192678,Ministry of Energy Bldg Dar El Salam Twr,Abu Dhabi,971-2-6266888,http://noor-capital.ae,,,,,,
Hafilat Industries L.L.C.,102157211,PO Box 91207,Abu Dhabi,971-02 6733336,http://www.hafilat.ae,,,,,,
Al Hikma Development Company PSC,111192639,"Almamoura Building, Almoroor Road,",Abu Dhabi,971-2-4130000,,,,,,,
Power Economy Middle East Company L.L.C.,127979950,PO Box 6072,Abu Dhabi,971-02 5501077,http://www.powereconomy.net,,,,,,
Schiavello Systems International Pty. Ltd.,137782861,Level 20 Sultan International Tower Corniche Road,Abu Dhabi,971-2-622-4411,,,,,,,
Dussmann Middle East GmbH,137783567,,Abu Dhabi,971-2-6-44-41-51,http://www.dussmann-service.ae,,,,,,
Al Jaber Lighting LLC,139493624,,Abu Dhabi,971-2-5557810,http://www.aljaber.com,,,,,,
"Marubeni - Itochu Steel Inc., Abu Dhabi",92461148,Shk. Zayed Ii,Abu Dhabi,,http://www.marubeni.com,,,,,,
Abu Dhabi Medical Devices Co L L C,98191435,PO Box 30485,Abu Dhabi,971-2-5510111,http://www.medeco-uae.com/,,,,,,
Amana Steel Buildings Company L.L.C.,42385768,PO Box 5643,Abu Dhabi,971-02 6428383,http://www.amanabuildings.com,,,,,,
ABB Transmission & Distribution Ltd.,42385784,Al Ghaith Tower 15th Floor Hamdan Street,Abu Dhabi,971-24171333,http://www.mena.abb.com,,,,,,
United Printing & Publishing Company,111192728,P.O.Box 39955,Abu Dhabi,971-2-5039999,http://www.upp.ae/,,,,,,
Valentine Maritime Gulf LLC,111192883,45877,Abu Dhabi,971-2-5555868,http://www.vmgulf.com/,,,,,,
Sky News Arabia FZ L.L.C.,123840768,PO Box 77845,Abu Dhabi,971-02 5091500,http://www.skynewsarabia.com,,,,,,
